{"type": "FeatureCollection", "features": [{"type": "Feature", "properties": {"zona": "Zona I"}, "geometry": {"type": "MultiPolygon", "coordinates": [[[[-98.849712, 19.599474], [-98.846114, 19.284665], [-98.849632, 19.151327], [-99.299826, 19.149423], [-99.299351, 19.600093], [-99.038417, 19.599962], [-99.039885, 19.590277], [-99.037646, 19.583561], [-99.03971, 19.580086], [-99.043199, 19.5801], [-99.044342, 19.578958], [-99.041447, 19.574222], [-99.04123, 19.568358], [-99.043402, 19.565318], [-99.046278, 19.564359], [-99.047094, 19.563146], [-99.046551, 19.560974], [-99.045046, 19.559611], [-99.047548, 19.556109], [-99.051383, 19.554442], [-99.054218, 19.552274], [-99.052718, 19.548605], [-99.052551, 19.545103], [-99.057887, 19.542268], [-99.065725, 19.5406], [-99.072896, 19.535764], [-99.076231, 19.53393], [-99.081234, 19.534764], [-99.084902, 19.527093], [-99.08557, 19.525258], [-99.088071, 19.524425], [-99.089572, 19.52259], [-99.088498, 19.518577], [-99.087621, 19.515178], [-99.088169, 19.514904], [-99.090362, 19.516494], [-99.094309, 19.517919], [-99.096941, 19.519674], [-99.098476, 19.521483], [-99.103575, 19.520935], [-99.103794, 19.517042], [-99.103575, 19.513917], [-99.101546, 19.511944], [-99.101601, 19.510409], [-99.102094, 19.508106], [-99.100998, 19.506352], [-99.098421, 19.504817], [-99.096612, 19.502459], [-99.094145, 19.501527], [-99.093816, 19.499554], [-99.096009, 19.49769], [-99.097379, 19.494071], [-99.097983, 19.490782], [-99.099408, 19.490069], [-99.104068, 19.490837], [-99.109386, 19.489192], [-99.113004, 19.485738], [-99.114649, 19.485738], [-99.114649, 19.489357], [-99.112894, 19.493413], [-99.11125, 19.495606], [-99.110921, 19.498128], [-99.111908, 19.499992], [-99.114923, 19.500924], [-99.119528, 19.501089], [-99.121721, 19.501801], [-99.120844, 19.504981], [-99.121831, 19.507832], [-99.123311, 19.509038], [-99.12357, 19.51585], [-99.140131, 19.517182], [-99.139369, 19.520989], [-99.140892, 19.534314], [-99.142665, 19.537227], [-99.145366, 19.538822], [-99.147532, 19.542877], [-99.148697, 19.543071], [-99.15555, 19.534695], [-99.160118, 19.531078], [-99.1664, 19.531269], [-99.169255, 19.537741], [-99.171349, 19.545926], [-99.17706, 19.550875], [-99.185245, 19.549543], [-99.189127, 19.550115], [-99.192276, 19.551853], [-99.194383, 19.554683], [-99.200855, 19.555444], [-99.201806, 19.551827], [-99.202568, 19.549543], [-99.207707, 19.549353], [-99.210182, 19.544213], [-99.213799, 19.539264], [-99.21951, 19.534885], [-99.21951, 19.531078], [-99.212847, 19.530888], [-99.202568, 19.533553], [-99.194763, 19.536028], [-99.190575, 19.535076], [-99.192479, 19.529365], [-99.195334, 19.523845], [-99.195525, 19.517563], [-99.20371, 19.513946], [-99.205804, 19.510329], [-99.206565, 19.506522], [-99.208469, 19.498908], [-99.211895, 19.491294], [-99.211895, 19.48387], [-99.207707, 19.473591], [-99.200474, 19.461598], [-99.196286, 19.454174], [-99.194954, 19.442943], [-99.197428, 19.437042], [-99.199522, 19.432854], [-99.197619, 19.426001], [-99.192669, 19.422575], [-99.184865, 19.420671], [-99.177821, 19.421242], [-99.178202, 19.418387], [-99.183723, 19.413057], [-99.185652, 19.409602], [-99.18463, 19.405249], [-99.184226, 19.403526], [-99.183096, 19.400138], [-99.18239, 19.398019], [-99.18239, 19.392499], [-99.18239, 19.385646], [-99.181248, 19.37746], [-99.177631, 19.373272], [-99.175918, 19.370607], [-99.179915, 19.362803], [-99.180677, 19.35614], [-99.182829, 19.354547], [-99.183444, 19.351745], [-99.182395, 19.34977], [-99.180712, 19.345725], [-99.17706, 19.343529], [-99.171159, 19.342054], [-99.157834, 19.341483], [-99.155169, 19.337485], [-99.152859, 19.338476], [-99.152207, 19.336848], [-99.152207, 19.33587], [-99.153745, 19.335563], [-99.154813, 19.334241], [-99.151904, 19.333078], [-99.151362, 19.332346], [-99.147935, 19.333678], [-99.14527, 19.331775], [-99.144509, 19.328348], [-99.142225, 19.325493], [-99.142415, 19.322828], [-99.141654, 19.322066], [-99.142415, 19.31864], [-99.141463, 19.314833], [-99.140321, 19.310455], [-99.140131, 19.30779], [-99.144699, 19.303792], [-99.146413, 19.300556], [-99.147935, 19.298081], [-99.149021, 19.297237], [-99.151388, 19.297146], [-99.152245, 19.295861], [-99.152483, 19.29253], [-99.150981, 19.291609], [-99.148507, 19.293703], [-99.146696, 19.293564], [-99.145344, 19.289246], [-99.144297, 19.287057], [-99.144631, 19.284677], [-99.143393, 19.284154], [-99.142009, 19.284193], [-99.141844, 19.283995], [-99.141044, 19.283795], [-99.14011, 19.282583], [-99.139443, 19.281822], [-99.14049, 19.280585], [-99.140586, 19.279728], [-99.139967, 19.278634], [-99.138825, 19.277872], [-99.138063, 19.279236], [-99.136324, 19.279236], [-99.13516, 19.279236], [-99.135256, 19.281108], [-99.134494, 19.281727], [-99.134209, 19.282345], [-99.133638, 19.282774], [-99.132898, 19.282567], [-99.131719, 19.282353], [-99.131056, 19.28191], [-99.13102, 19.27949], [-99.130347, 19.279338], [-99.129545, 19.279157], [-99.129259, 19.277539], [-99.129247, 19.275306], [-99.12826, 19.274826], [-99.128022, 19.273684], [-99.128474, 19.272864], [-99.129069, 19.272209], [-99.128974, 19.270829], [-99.128308, 19.270734], [-99.127236, 19.270389], [-99.126913, 19.269742], [-99.12569, 19.268925], [-99.124929, 19.267545], [-99.124548, 19.266451], [-99.124799, 19.265358], [-99.125119, 19.26331], [-99.124712, 19.262294], [-99.122787, 19.262881], [-99.122385, 19.264189], [-99.121435, 19.264136], [-99.120644, 19.262289], [-99.119536, 19.262131], [-99.119408, 19.262691], [-99.118269, 19.262131], [-99.117583, 19.261498], [-99.116792, 19.260442], [-99.11669, 19.259476], [-99.11741, 19.257409], [-99.116981, 19.256029], [-99.115739, 19.255608], [-99.115472, 19.255218], [-99.114839, 19.254057], [-99.113174, 19.254268], [-99.113256, 19.253688], [-99.113127, 19.252935], [-99.111261, 19.253046], [-99.110382, 19.252802], [-99.110366, 19.250461], [-99.109826, 19.250205], [-99.108401, 19.250205], [-99.107504, 19.250627], [-99.105863, 19.250211], [-99.104287, 19.24961], [-99.104127, 19.249044], [-99.10456, 19.247701], [-99.104227, 19.245226], [-99.103547, 19.245192], [-99.100486, 19.245456], [-99.099167, 19.2463], [-99.098494, 19.247447], [-99.098234, 19.247453], [-99.097848, 19.247524], [-99.096963, 19.247724], [-99.096035, 19.247839], [-99.09535, 19.247824], [-99.094564, 19.247724], [-99.094108, 19.24761], [-99.093793, 19.247439], [-99.093422, 19.247139], [-99.093108, 19.246925], [-99.092851, 19.246696], [-99.092394, 19.246525], [-99.092185, 19.246469], [-99.091655, 19.244469], [-99.091149, 19.243784], [-99.090554, 19.243933], [-99.089483, 19.244171], [-99.088888, 19.244677], [-99.087996, 19.245153], [-99.087372, 19.24551], [-99.086241, 19.245718], [-99.085408, 19.24551], [-99.084814, 19.245212], [-99.084397, 19.244617], [-99.084189, 19.244231], [-99.083683, 19.243517], [-99.08297, 19.24316], [-99.082375, 19.243071], [-99.081542, 19.243071], [-99.080769, 19.243071], [-99.080203, 19.243398], [-99.079728, 19.243903], [-99.07943, 19.24429], [-99.078746, 19.244647], [-99.0783, 19.244974], [-99.076813, 19.244974], [-99.076099, 19.245034], [-99.07479, 19.245331], [-99.073511, 19.245212], [-99.072559, 19.244736], [-99.071667, 19.244736], [-99.071161, 19.244766], [-99.070745, 19.245093], [-99.069793, 19.245182], [-99.068841, 19.245182], [-99.068425, 19.246104], [-99.06896, 19.24664], [-99.069704, 19.247443], [-99.069526, 19.248514], [-99.069912, 19.249287], [-99.069674, 19.250358], [-99.068901, 19.251696], [-99.067979, 19.252797], [-99.0667, 19.253629], [-99.065302, 19.253986], [-99.064053, 19.254046], [-99.062744, 19.253957], [-99.061941, 19.253897], [-99.060454, 19.253064], [-99.0598, 19.252172], [-99.058907, 19.251339], [-99.057866, 19.251072], [-99.055784, 19.251161], [-99.054505, 19.250953], [-99.052721, 19.250596], [-99.051471, 19.250685], [-99.050371, 19.252321], [-99.048348, 19.253748], [-99.045969, 19.255265], [-99.044238, 19.255896], [-99.040919, 19.255967], [-99.039098, 19.255539], [-99.038277, 19.256039], [-99.036671, 19.257609], [-99.035386, 19.258573], [-99.034708, 19.25918], [-99.03403, 19.258644], [-99.031888, 19.258573], [-99.028712, 19.258573], [-99.028034, 19.258573], [-99.02757, 19.259287], [-99.026321, 19.25893], [-99.023929, 19.258573], [-99.022287, 19.258073], [-99.021038, 19.256574], [-99.019718, 19.255753], [-99.017326, 19.255789], [-99.014685, 19.254325], [-99.011473, 19.253576], [-99.010331, 19.253612], [-99.009295, 19.251756], [-99.008796, 19.250863], [-99.007654, 19.250078], [-99.006048, 19.24965], [-99.005298, 19.248757], [-99.00387, 19.248936], [-99.003371, 19.249221], [-99.001443, 19.249507], [-98.999908, 19.249364], [-98.999908, 19.247187], [-98.999801, 19.246081], [-98.998588, 19.245545], [-98.997196, 19.244724], [-98.996625, 19.243654], [-98.996232, 19.241905], [-98.995376, 19.239799], [-98.994805, 19.237836], [-98.994233, 19.236479], [-98.993734, 19.23573], [-98.992841, 19.234838], [-98.991485, 19.233089], [-98.991271, 19.227521], [-98.989379, 19.223737], [-98.988116, 19.222774], [-98.984632, 19.22226], [-98.981377, 19.222317], [-98.978636, 19.221061], [-98.977208, 19.218605], [-98.976181, 19.215179], [-98.974639, 19.213865], [-98.973268, 19.213808], [-98.972583, 19.21455], [-98.971498, 19.214322], [-98.971441, 19.21278], [-98.970527, 19.211923], [-98.968871, 19.211638], [-98.966587, 19.211124], [-98.965844, 19.210553], [-98.966358, 19.20981], [-98.967443, 19.209354], [-98.966986, 19.208897], [-98.965673, 19.20884], [-98.964188, 19.208725], [-98.963446, 19.207698], [-98.963389, 19.20587], [-98.962475, 19.205242], [-98.960533, 19.205642], [-98.959163, 19.206156], [-98.958192, 19.20667], [-98.957564, 19.207469], [-98.955051, 19.207469], [-98.954594, 19.206213], [-98.95368, 19.205527], [-98.952767, 19.204728], [-98.951396, 19.204671], [-98.95014, 19.204899], [-98.949569, 19.205527], [-98.949569, 19.206213], [-98.949569, 19.207298], [-98.948369, 19.207412], [-98.947741, 19.206384], [-98.946256, 19.206156], [-98.944372, 19.20627], [-98.943173, 19.206327], [-98.941859, 19.206555], [-98.941003, 19.208269], [-98.940032, 19.207698], [-98.939803, 19.206955], [-98.936148, 19.206841], [-98.933293, 19.206441], [-98.932037, 19.206327], [-98.931009, 19.207069], [-98.929467, 19.207355], [-98.926954, 19.207526], [-98.924442, 19.206441], [-98.919816, 19.206555], [-98.918217, 19.207812], [-98.916161, 19.207412], [-98.914448, 19.206041], [-98.912049, 19.205756], [-98.910964, 19.2041], [-98.910165, 19.202958], [-98.909194, 19.202272], [-98.907995, 19.201873], [-98.906681, 19.201016], [-98.905082, 19.200845], [-98.90474, 19.202044], [-98.903141, 19.202215], [-98.902969, 19.203015], [-98.903883, 19.203643], [-98.903369, 19.205356], [-98.902227, 19.205984], [-98.901484, 19.209354], [-98.901599, 19.212209], [-98.900571, 19.214722], [-98.898629, 19.216778], [-98.896174, 19.218091], [-98.894346, 19.218891], [-98.892976, 19.22146], [-98.892633, 19.224144], [-98.888864, 19.226828], [-98.886465, 19.228713], [-98.882868, 19.231111], [-98.878699, 19.23311], [-98.875558, 19.235966], [-98.872645, 19.238136], [-98.872017, 19.241448], [-98.870875, 19.244075], [-98.868705, 19.245902], [-98.865964, 19.247958], [-98.864022, 19.249271], [-98.862537, 19.251556], [-98.861681, 19.254297], [-98.860482, 19.256867], [-98.857284, 19.258066], [-98.855627, 19.259322], [-98.855913, 19.261892], [-98.856541, 19.263148], [-98.85597, 19.265147], [-98.855228, 19.266346], [-98.854086, 19.266118], [-98.852258, 19.266061], [-98.852258, 19.267374], [-98.854714, 19.267546], [-98.854828, 19.268688], [-98.853686, 19.270173], [-98.852429, 19.271886], [-98.850659, 19.273085], [-98.850259, 19.275826], [-98.851516, 19.276169], [-98.852429, 19.277539], [-98.8534, 19.278796], [-98.853971, 19.279253], [-98.853914, 19.280166], [-98.853629, 19.280566], [-98.853914, 19.281765], [-98.855056, 19.282051], [-98.857969, 19.282108], [-98.859339, 19.282108], [-98.859111, 19.284221], [-98.862081, 19.284792], [-98.86368, 19.285592], [-98.864365, 19.287019], [-98.863851, 19.289018], [-98.863337, 19.292102], [-98.863965, 19.294386], [-98.865107, 19.29667], [-98.865621, 19.297927], [-98.867049, 19.299126], [-98.868077, 19.30141], [-98.868534, 19.304437], [-98.868534, 19.307121], [-98.868991, 19.30832], [-98.871503, 19.309577], [-98.873902, 19.309748], [-98.875215, 19.310148], [-98.875929, 19.312694], [-98.876215, 19.315121], [-98.878784, 19.31612], [-98.88164, 19.31769], [-98.880498, 19.319261], [-98.881069, 19.320689], [-98.883781, 19.321974], [-98.888207, 19.321974], [-98.892347, 19.321402], [-98.895774, 19.322259], [-98.896773, 19.320831], [-98.900485, 19.319832], [-98.903912, 19.316834], [-98.907766, 19.31612], [-98.909622, 19.314264], [-98.910622, 19.312265], [-98.913049, 19.312694], [-98.913762, 19.313407], [-98.915047, 19.313836], [-98.91619, 19.312408], [-98.916618, 19.311409], [-98.920187, 19.311409], [-98.922471, 19.311837], [-98.924185, 19.313265], [-98.925898, 19.31455], [-98.927183, 19.316263], [-98.927896, 19.318547], [-98.933607, 19.319118], [-98.933607, 19.321974], [-98.937319, 19.322259], [-98.940317, 19.322687], [-98.941031, 19.324972], [-98.939889, 19.327541], [-98.941459, 19.328398], [-98.941602, 19.329255], [-98.943173, 19.330111], [-98.945029, 19.330825], [-98.945029, 19.332681], [-98.946314, 19.334109], [-98.949169, 19.338392], [-98.950168, 19.341247], [-98.951596, 19.34296], [-98.95388, 19.34296], [-98.955593, 19.340105], [-98.957449, 19.337678], [-98.958877, 19.334394], [-98.960019, 19.330397], [-98.962589, 19.326542], [-98.965873, 19.323258], [-98.967158, 19.319689], [-98.967015, 19.315977], [-98.968157, 19.312551], [-98.970156, 19.312836], [-98.970727, 19.311694], [-98.97501, 19.31198], [-98.977865, 19.309695], [-98.978722, 19.306983], [-98.978722, 19.305698], [-98.98172, 19.304556], [-98.983005, 19.303842], [-98.984432, 19.30013], [-98.987145, 19.298702], [-98.989858, 19.298417], [-98.991428, 19.296989], [-98.992713, 19.297846], [-98.994283, 19.296846], [-98.995711, 19.297703], [-98.996996, 19.298131], [-98.997567, 19.30013], [-98.998852, 19.30013], [-98.999566, 19.299416], [-99.001279, 19.299273], [-99.002564, 19.300558], [-99.00285, 19.301701], [-99.004277, 19.301701], [-99.00599, 19.300416], [-99.007561, 19.299559], [-99.008132, 19.301415], [-99.012129, 19.301558], [-99.013843, 19.301986], [-99.014985, 19.302985], [-99.015699, 19.303985], [-99.014985, 19.305698], [-99.017412, 19.304841], [-99.020553, 19.305555], [-99.022837, 19.305698], [-99.024407, 19.30684], [-99.025407, 19.307982], [-99.02712, 19.308411], [-99.028833, 19.308268], [-99.031689, 19.307982], [-99.033687, 19.308411], [-99.034401, 19.310409], [-99.035401, 19.310552], [-99.037257, 19.309553], [-99.038684, 19.30784], [-99.039826, 19.306555], [-99.041968, 19.306697], [-99.043396, 19.308125], [-99.04568, 19.308411], [-99.047964, 19.308411], [-99.051105, 19.308125], [-99.057672, 19.30784], [-99.060528, 19.307411], [-99.061524, 19.30686], [-99.062187, 19.307191], [-99.061358, 19.308186], [-99.060032, 19.309844], [-99.060253, 19.312332], [-99.059645, 19.315261], [-99.058263, 19.316367], [-99.05716, 19.319194], [-99.055018, 19.321192], [-99.051877, 19.322477], [-99.047451, 19.32262], [-99.045881, 19.325904], [-99.046024, 19.329901], [-99.04431, 19.3319], [-99.041883, 19.332614], [-99.039171, 19.332614], [-99.037315, 19.334898], [-99.033888, 19.334898], [-99.032032, 19.336468], [-99.030748, 19.338753], [-99.029034, 19.340038], [-99.025608, 19.339895], [-99.023038, 19.340038], [-99.023466, 19.342179], [-99.023609, 19.344321], [-99.022324, 19.346319], [-99.021468, 19.347604], [-99.019754, 19.348033], [-99.01747, 19.34689], [-99.014758, 19.347319], [-99.01333, 19.349032], [-99.012141, 19.351953], [-99.011509, 19.353066], [-99.010748, 19.354042], [-99.009867, 19.354874], [-99.008582, 19.355683], [-99.003919, 19.355564], [-99.001301, 19.355445], [-98.999326, 19.356516], [-98.998375, 19.357301], [-98.99214, 19.357349], [-98.98919, 19.355773], [-98.984978, 19.35463], [-98.980552, 19.355273], [-98.977126, 19.355915], [-98.974556, 19.355416], [-98.9732, 19.355844], [-98.971629, 19.356415], [-98.970844, 19.355416], [-98.96856, 19.35513], [-98.966918, 19.353988], [-98.965419, 19.352703], [-98.96235, 19.351632], [-98.958495, 19.352703], [-98.956567, 19.355344], [-98.955854, 19.357771], [-98.955211, 19.361626], [-98.954569, 19.365695], [-98.953855, 19.368907], [-98.953855, 19.373833], [-98.95414, 19.376902], [-98.954854, 19.379472], [-98.956496, 19.381328], [-98.958638, 19.383898], [-98.959923, 19.386111], [-98.962135, 19.388538], [-98.964134, 19.389466], [-98.968774, 19.390536], [-98.972201, 19.391393], [-98.974342, 19.393178], [-98.974413, 19.397389], [-98.975199, 19.399745], [-98.975627, 19.402386], [-98.975912, 19.405099], [-98.976198, 19.40774], [-98.976698, 19.409382], [-98.976127, 19.411309], [-98.975056, 19.413094], [-98.973628, 19.41495], [-98.973557, 19.416663], [-98.9727, 19.417662], [-98.971629, 19.419019], [-98.969559, 19.420018], [-98.965847, 19.420946], [-98.96235, 19.421803], [-98.960494, 19.422445], [-98.959066, 19.423088], [-98.955568, 19.423088], [-98.95257, 19.423088], [-98.951785, 19.422588], [-98.948572, 19.422088], [-98.94743, 19.421446], [-98.943504, 19.42116], [-98.940435, 19.41702], [-98.936223, 19.413808], [-98.932583, 19.412094], [-98.928585, 19.410167], [-98.922089, 19.409739], [-98.917592, 19.411024], [-98.913309, 19.41445], [-98.912881, 19.416734], [-98.913594, 19.419447], [-98.914165, 19.420732], [-98.913737, 19.427513], [-98.91338, 19.432796], [-98.913166, 19.440362], [-98.915522, 19.44129], [-98.91595, 19.444217], [-98.915165, 19.445573], [-98.914665, 19.448], [-98.914665, 19.449999], [-98.914237, 19.452069], [-98.911524, 19.453854], [-98.908455, 19.455424], [-98.906313, 19.458994], [-98.904172, 19.46242], [-98.901531, 19.465632], [-98.899532, 19.467631], [-98.898961, 19.469701], [-98.899032, 19.471771], [-98.899246, 19.473699], [-98.900603, 19.475697], [-98.903315, 19.476911], [-98.905171, 19.47885], [-98.906242, 19.481706], [-98.905766, 19.486345], [-98.904814, 19.489439], [-98.903149, 19.491461], [-98.902792, 19.495744], [-98.901602, 19.49967], [-98.899222, 19.502288], [-98.89137, 19.504429], [-98.886611, 19.506214], [-98.883042, 19.508237], [-98.881971, 19.514066], [-98.881852, 19.519658], [-98.883518, 19.522156], [-98.884113, 19.525488], [-98.882923, 19.526796], [-98.883161, 19.530366], [-98.882685, 19.535005], [-98.883994, 19.537623], [-98.885065, 19.538932], [-98.885779, 19.541311], [-98.885779, 19.550353], [-98.886254, 19.559514], [-98.887087, 19.562845], [-98.888277, 19.568794], [-98.890299, 19.572601], [-98.891846, 19.575694], [-98.891846, 19.580334], [-98.893393, 19.584141], [-98.898033, 19.584736], [-98.901721, 19.586402], [-98.907194, 19.586521], [-98.911834, 19.587948], [-98.915879, 19.589495], [-98.91921, 19.593421], [-98.921232, 19.596039], [-98.924921, 19.599132], [-98.925397, 19.600322], [-98.849712, 19.599474]]], [[[-98.940834, 19.252688], [-98.943055, 19.252688], [-98.944458, 19.253973], [-98.946387, 19.256194], [-98.946796, 19.257655], [-98.947439, 19.258298], [-98.947497, 19.260987], [-98.946387, 19.263792], [-98.944516, 19.265546], [-98.940951, 19.267299], [-98.939782, 19.268059], [-98.939081, 19.269169], [-98.938204, 19.26952], [-98.937795, 19.270163], [-98.93762, 19.271916], [-98.935867, 19.273436], [-98.933646, 19.27326], [-98.931366, 19.272501], [-98.928795, 19.272208], [-98.927217, 19.271507], [-98.926866, 19.270747], [-98.926807, 19.268468], [-98.926691, 19.26613], [-98.927275, 19.263909], [-98.927684, 19.262156], [-98.929145, 19.260811], [-98.931775, 19.25935], [-98.933178, 19.259], [-98.934113, 19.257246], [-98.9361, 19.254733], [-98.937445, 19.253389], [-98.938906, 19.252688], [-98.940834, 19.252688]]], [[[-98.91628, 19.303231], [-98.915631, 19.303203], [-98.914888, 19.303224], [-98.914396, 19.303181], [-98.91411, 19.303053], [-98.913882, 19.302832], [-98.913668, 19.302596], [-98.913382, 19.302253], [-98.913118, 19.301882], [-98.912889, 19.301654], [-98.912597, 19.301532], [-98.912147, 19.301532], [-98.911783, 19.301525], [-98.911547, 19.301425], [-98.91134, 19.30119], [-98.91134, 19.300904], [-98.911412, 19.300347], [-98.911326, 19.299719], [-98.911133, 19.299527], [-98.91047, 19.299412], [-98.909956, 19.299262], [-98.909449, 19.299091], [-98.909142, 19.298884], [-98.908714, 19.298577], [-98.908292, 19.298227], [-98.907893, 19.297642], [-98.907686, 19.297035], [-98.9075, 19.296514], [-98.907329, 19.2959], [-98.907379, 19.295422], [-98.9075, 19.294751], [-98.90765, 19.294137], [-98.9078, 19.293809], [-98.908028, 19.293345], [-98.9083, 19.292752], [-98.908866, 19.292175], [-98.909699, 19.291604], [-98.910294, 19.290962], [-98.911817, 19.289701], [-98.913518, 19.289582], [-98.915136, 19.29001], [-98.916052, 19.290867], [-98.917028, 19.292306], [-98.917397, 19.293567], [-98.917635, 19.295507], [-98.917944, 19.297113], [-98.918289, 19.298743], [-98.918468, 19.300622], [-98.918634, 19.302502], [-98.919027, 19.303466], [-98.918864, 19.303588], [-98.918515, 19.303531], [-98.917722, 19.303481], [-98.917044, 19.303403], [-98.916659, 19.303381], [-98.91628, 19.303231]]], [[[-99.061469, 19.296081], [-99.062961, 19.296081], [-99.063514, 19.29796], [-99.063625, 19.29901], [-99.065062, 19.300227], [-99.064841, 19.303267], [-99.064398, 19.304704], [-99.063951, 19.305093], [-99.062906, 19.305091], [-99.062574, 19.30393], [-99.062961, 19.302659], [-99.062685, 19.300779], [-99.062519, 19.299397], [-99.061911, 19.298513], [-99.061469, 19.297076], [-99.061469, 19.296081]]], [[[-99.086167, 19.358194], [-99.084891, 19.356976], [-99.083848, 19.356686], [-99.083094, 19.355585], [-99.08205, 19.354657], [-99.080601, 19.353207], [-99.079499, 19.352627], [-99.078339, 19.352569], [-99.0766, 19.352105], [-99.07544, 19.351236], [-99.075324, 19.348684], [-99.075266, 19.345669], [-99.075092, 19.344277], [-99.074686, 19.34364], [-99.074686, 19.34277], [-99.074222, 19.341436], [-99.072541, 19.340682], [-99.070743, 19.338885], [-99.070801, 19.336681], [-99.070511, 19.334014], [-99.070105, 19.331811], [-99.071207, 19.330883], [-99.072773, 19.330941], [-99.07312, 19.33239], [-99.074106, 19.332506], [-99.074222, 19.331231], [-99.073468, 19.329433], [-99.073468, 19.327636], [-99.074048, 19.326012], [-99.074918, 19.325896], [-99.075092, 19.326882], [-99.076542, 19.327056], [-99.077121, 19.325896], [-99.077875, 19.324562], [-99.079325, 19.324331], [-99.080543, 19.324968], [-99.080775, 19.326244], [-99.082108, 19.326244], [-99.083268, 19.32549], [-99.083326, 19.324562], [-99.084254, 19.32462], [-99.084428, 19.32549], [-99.085471, 19.32549], [-99.086341, 19.324678], [-99.087733, 19.323577], [-99.088777, 19.323693], [-99.0904, 19.325258], [-99.091676, 19.326012], [-99.093299, 19.325896], [-99.095039, 19.325838], [-99.096199, 19.325896], [-99.096373, 19.32665], [-99.097822, 19.32694], [-99.09904, 19.327636], [-99.100084, 19.328042], [-99.101707, 19.328505], [-99.102635, 19.3281], [-99.102867, 19.329027], [-99.104201, 19.329027], [-99.10478, 19.328505], [-99.105244, 19.329549], [-99.105012, 19.330477], [-99.105302, 19.331231], [-99.105592, 19.331695], [-99.10623, 19.332332], [-99.106578, 19.333028], [-99.10652, 19.333608], [-99.105708, 19.333898], [-99.105012, 19.334536], [-99.105012, 19.335522], [-99.105128, 19.33616], [-99.105592, 19.336797], [-99.106346, 19.337667], [-99.106172, 19.338479], [-99.107216, 19.339871], [-99.108376, 19.340392], [-99.108202, 19.341784], [-99.107274, 19.342132], [-99.10652, 19.342248], [-99.105534, 19.342132], [-99.105476, 19.34393], [-99.105592, 19.345031], [-99.105998, 19.345553], [-99.106056, 19.346133], [-99.106172, 19.347583], [-99.105302, 19.347699], [-99.104896, 19.348626], [-99.103679, 19.34851], [-99.102055, 19.34851], [-99.101881, 19.349554], [-99.102055, 19.350714], [-99.102635, 19.3517], [-99.102055, 19.352743], [-99.100721, 19.353439], [-99.09904, 19.355005], [-99.097242, 19.355237], [-99.095619, 19.355411], [-99.095155, 19.355759], [-99.094633, 19.356744], [-99.094459, 19.357672], [-99.093705, 19.358484], [-99.092256, 19.358658], [-99.090574, 19.357498], [-99.090284, 19.357962], [-99.090922, 19.359238], [-99.090922, 19.360803], [-99.089752, 19.360742], [-99.089936, 19.360107], [-99.088313, 19.360049], [-99.087791, 19.359296], [-99.086805, 19.359006], [-99.086167, 19.358194]]], [[[-99.022366, 19.374724], [-99.022632, 19.374306], [-99.023088, 19.373926], [-99.02305, 19.373508], [-99.023582, 19.373432], [-99.023658, 19.372671], [-99.023962, 19.372025], [-99.024456, 19.371417], [-99.025026, 19.370961], [-99.025863, 19.370847], [-99.026091, 19.370125], [-99.027839, 19.369973], [-99.028865, 19.370581], [-99.029473, 19.370695], [-99.02974, 19.371607], [-99.030158, 19.372139], [-99.030462, 19.372671], [-99.031032, 19.373166], [-99.032704, 19.373394], [-99.033883, 19.373546], [-99.034111, 19.37461], [-99.035213, 19.374534], [-99.034795, 19.375256], [-99.033769, 19.375408], [-99.033312, 19.37651], [-99.032514, 19.377271], [-99.03202, 19.377765], [-99.03286, 19.378361], [-99.032628, 19.378677], [-99.032134, 19.379399], [-99.03164, 19.379817], [-99.030766, 19.380197], [-99.029892, 19.380539], [-99.028523, 19.380539], [-99.027155, 19.380425], [-99.026129, 19.379855], [-99.025254, 19.379171], [-99.02362, 19.378221], [-99.022974, 19.377841], [-99.022556, 19.377195], [-99.021834, 19.37632], [-99.021531, 19.375949], [-99.02191, 19.374724], [-99.022366, 19.374724]]], [[[-99.08557, 19.434694], [-99.086271, 19.434694], [-99.086718, 19.435587], [-99.08696, 19.436376], [-99.086622, 19.436417], [-99.085665, 19.437023], [-99.085506, 19.437852], [-99.085665, 19.438713], [-99.085602, 19.439925], [-99.085028, 19.440723], [-99.083496, 19.441265], [-99.082093, 19.442318], [-99.080721, 19.442988], [-99.079159, 19.44286], [-99.078138, 19.442094], [-99.077819, 19.441201], [-99.077755, 19.440181], [-99.078234, 19.439447], [-99.079414, 19.438969], [-99.080913, 19.438873], [-99.081934, 19.438809], [-99.082476, 19.438426], [-99.082795, 19.43782], [-99.083401, 19.437055], [-99.083911, 19.436289], [-99.084198, 19.435779], [-99.08474, 19.435045], [-99.08557, 19.434694]]], [[[-98.959364, 19.544573], [-98.959042, 19.544547], [-98.957533, 19.544563], [-98.957145, 19.544472], [-98.957038, 19.544044], [-98.957005, 19.543862], [-98.95656, 19.543763], [-98.956486, 19.543516], [-98.956477, 19.543087], [-98.95651, 19.542914], [-98.9567, 19.542832], [-98.956857, 19.542766], [-98.956956, 19.542617], [-98.957022, 19.542387], [-98.957145, 19.542098], [-98.957351, 19.541983], [-98.957698, 19.541925], [-98.958333, 19.5419], [-98.958629, 19.54195], [-98.958679, 19.542271], [-98.958753, 19.542667], [-98.959165, 19.542766], [-98.959437, 19.54284], [-98.959421, 19.543293], [-98.959396, 19.544085], [-98.959364, 19.544573]]], [[[-98.952627, 19.549993], [-98.952909, 19.549508], [-98.953891, 19.549599], [-98.954669, 19.549993], [-98.955076, 19.55058], [-98.955234, 19.551088], [-98.955087, 19.551618], [-98.954748, 19.551991], [-98.954444, 19.552228], [-98.954162, 19.552566], [-98.953936, 19.552871], [-98.953361, 19.552927], [-98.952751, 19.553141], [-98.952398, 19.553684], [-98.95186, 19.553548], [-98.951736, 19.553153], [-98.951296, 19.552927], [-98.951262, 19.552318], [-98.951341, 19.550907], [-98.951442, 19.550479], [-98.952029, 19.550151], [-98.952627, 19.549993]]]]}}]}