{"type": "FeatureCollection", "features": [{"type": "Feature", "properties": {"zona": "Zona II"}, "geometry": {"type": "MultiPolygon", "coordinates": [[[[-98.886254, 19.559514], [-98.885779, 19.550353], [-98.885779, 19.541311], [-98.885065, 19.538932], [-98.883994, 19.537623], [-98.882685, 19.535005], [-98.883161, 19.530366], [-98.882923, 19.526796], [-98.884113, 19.525488], [-98.883518, 19.522156], [-98.881852, 19.519658], [-98.881971, 19.514066], [-98.883042, 19.508237], [-98.886611, 19.506214], [-98.89137, 19.504429], [-98.899222, 19.502288], [-98.901602, 19.49967], [-98.902792, 19.495744], [-98.903149, 19.491461], [-98.904814, 19.489439], [-98.905766, 19.486345], [-98.906242, 19.481706], [-98.905171, 19.47885], [-98.903315, 19.476911], [-98.900603, 19.475697], [-98.899246, 19.473699], [-98.899032, 19.471771], [-98.898961, 19.469701], [-98.899532, 19.467631], [-98.901531, 19.465632], [-98.904172, 19.46242], [-98.906313, 19.458994], [-98.908455, 19.455424], [-98.911524, 19.453854], [-98.914237, 19.452069], [-98.914665, 19.449999], [-98.914665, 19.448], [-98.915165, 19.445573], [-98.91595, 19.444217], [-98.915522, 19.44129], [-98.913166, 19.440362], [-98.91338, 19.432796], [-98.913737, 19.427513], [-98.914165, 19.420732], [-98.913594, 19.419447], [-98.912881, 19.416734], [-98.913309, 19.41445], [-98.917592, 19.411024], [-98.922089, 19.409739], [-98.928585, 19.410167], [-98.932583, 19.412094], [-98.936223, 19.413808], [-98.940435, 19.41702], [-98.943504, 19.42116], [-98.94743, 19.421446], [-98.948572, 19.422088], [-98.951785, 19.422588], [-98.95257, 19.423088], [-98.955568, 19.423088], [-98.959066, 19.423088], [-98.960494, 19.422445], [-98.96235, 19.421803], [-98.965847, 19.420946], [-98.969559, 19.420018], [-98.971629, 19.419019], [-98.9727, 19.417662], [-98.973557, 19.416663], [-98.973628, 19.41495], [-98.975056, 19.413094], [-98.976127, 19.411309], [-98.976698, 19.409382], [-98.976198, 19.40774], [-98.975912, 19.405099], [-98.975627, 19.402386], [-98.975199, 19.399745], [-98.974413, 19.397389], [-98.974342, 19.393178], [-98.972201, 19.391393], [-98.968774, 19.390536], [-98.964134, 19.389466], [-98.962135, 19.388538], [-98.959923, 19.386111], [-98.958638, 19.383898], [-98.956496, 19.381328], [-98.954854, 19.379472], [-98.95414, 19.376902], [-98.953855, 19.373833], [-98.953855, 19.368907], [-98.954569, 19.365695], [-98.955211, 19.361626], [-98.955854, 19.357771], [-98.956567, 19.355344], [-98.958495, 19.352703], [-98.96235, 19.351632], [-98.965419, 19.352703], [-98.966918, 19.353988], [-98.96856, 19.35513], [-98.970844, 19.355416], [-98.971629, 19.356415], [-98.9732, 19.355844], [-98.974556, 19.355416], [-98.977126, 19.355915], [-98.980552, 19.355273], [-98.984978, 19.35463], [-98.98919, 19.355773], [-98.99214, 19.357349], [-98.998375, 19.357301], [-98.999326, 19.356516], [-99.001301, 19.355445], [-99.003919, 19.355564], [-99.008582, 19.355683], [-99.009867, 19.354874], [-99.010748, 19.354042], [-99.011509, 19.353066], [-99.012141, 19.351953], [-99.01333, 19.349032], [-99.014758, 19.347319], [-99.01747, 19.34689], [-99.019754, 19.348033], [-99.021468, 19.347604], [-99.022324, 19.346319], [-99.023609, 19.344321], [-99.023466, 19.342179], [-99.023038, 19.340038], [-99.025608, 19.339895], [-99.029034, 19.340038], [-99.030748, 19.338753], [-99.032032, 19.336468], [-99.033888, 19.334898], [-99.037315, 19.334898], [-99.039171, 19.332614], [-99.041883, 19.332614], [-99.04431, 19.3319], [-99.046024, 19.329901], [-99.045881, 19.325904], [-99.047451, 19.32262], [-99.051877, 19.322477], [-99.055018, 19.321192], [-99.05716, 19.319194], [-99.058263, 19.316367], [-99.059645, 19.315261], [-99.060253, 19.312332], [-99.060032, 19.309844], [-99.061358, 19.308186], [-99.062187, 19.307191], [-99.061524, 19.30686], [-99.060528, 19.307411], [-99.057672, 19.30784], [-99.051105, 19.308125], [-99.047964, 19.308411], [-99.04568, 19.308411], [-99.043396, 19.308125], [-99.041968, 19.306697], [-99.039826, 19.306555], [-99.038684, 19.30784], [-99.037257, 19.309553], [-99.035401, 19.310552], [-99.034401, 19.310409], [-99.033687, 19.308411], [-99.031689, 19.307982], [-99.028833, 19.308268], [-99.02712, 19.308411], [-99.025407, 19.307982], [-99.024407, 19.30684], [-99.022837, 19.305698], [-99.020553, 19.305555], [-99.017412, 19.304841], [-99.014985, 19.305698], [-99.015699, 19.303985], [-99.014985, 19.302985], [-99.013843, 19.301986], [-99.012129, 19.301558], [-99.008132, 19.301415], [-99.007561, 19.299559], [-99.00599, 19.300416], [-99.004277, 19.301701], [-99.00285, 19.301701], [-99.002564, 19.300558], [-99.001279, 19.299273], [-98.999566, 19.299416], [-98.998852, 19.30013], [-98.997567, 19.30013], [-98.996996, 19.298131], [-98.995711, 19.297703], [-98.994283, 19.296846], [-98.992713, 19.297846], [-98.991428, 19.296989], [-98.989858, 19.298417], [-98.987145, 19.298702], [-98.984432, 19.30013], [-98.983005, 19.303842], [-98.98172, 19.304556], [-98.978722, 19.305698], [-98.978722, 19.306983], [-98.977865, 19.309695], [-98.97501, 19.31198], [-98.970727, 19.311694], [-98.970156, 19.312836], [-98.968157, 19.312551], [-98.967015, 19.315977], [-98.967158, 19.319689], [-98.965873, 19.323258], [-98.962589, 19.326542], [-98.960019, 19.330397], [-98.958877, 19.334394], [-98.957449, 19.337678], [-98.955593, 19.340105], [-98.95388, 19.34296], [-98.951596, 19.34296], [-98.950168, 19.341247], [-98.949169, 19.338392], [-98.946314, 19.334109], [-98.945029, 19.332681], [-98.945029, 19.330825], [-98.943173, 19.330111], [-98.941602, 19.329255], [-98.941459, 19.328398], [-98.939889, 19.327541], [-98.941031, 19.324972], [-98.940317, 19.322687], [-98.937319, 19.322259], [-98.933607, 19.321974], [-98.933607, 19.319118], [-98.927896, 19.318547], [-98.927183, 19.316263], [-98.925898, 19.31455], [-98.924185, 19.313265], [-98.922471, 19.311837], [-98.920187, 19.311409], [-98.916618, 19.311409], [-98.91619, 19.312408], [-98.915047, 19.313836], [-98.913762, 19.313407], [-98.913049, 19.312694], [-98.910622, 19.312265], [-98.909622, 19.314264], [-98.907766, 19.31612], [-98.903912, 19.316834], [-98.900485, 19.319832], [-98.896773, 19.320831], [-98.895774, 19.322259], [-98.892347, 19.321402], [-98.888207, 19.321974], [-98.883781, 19.321974], [-98.881069, 19.320689], [-98.880498, 19.319261], [-98.88164, 19.31769], [-98.878784, 19.31612], [-98.876215, 19.315121], [-98.875929, 19.312694], [-98.875215, 19.310148], [-98.873902, 19.309748], [-98.871503, 19.309577], [-98.868991, 19.30832], [-98.868534, 19.307121], [-98.868534, 19.304437], [-98.868077, 19.30141], [-98.867049, 19.299126], [-98.865621, 19.297927], [-98.865107, 19.29667], [-98.863965, 19.294386], [-98.863337, 19.292102], [-98.863851, 19.289018], [-98.864365, 19.287019], [-98.86368, 19.285592], [-98.862081, 19.284792], [-98.859111, 19.284221], [-98.859339, 19.282108], [-98.857969, 19.282108], [-98.855056, 19.282051], [-98.853914, 19.281765], [-98.853629, 19.280566], [-98.853914, 19.280166], [-98.853971, 19.279253], [-98.8534, 19.278796], [-98.852429, 19.277539], [-98.851516, 19.276169], [-98.850259, 19.275826], [-98.850659, 19.273085], [-98.852429, 19.271886], [-98.853686, 19.270173], [-98.854828, 19.268688], [-98.854714, 19.267546], [-98.852258, 19.267374], [-98.852258, 19.266061], [-98.854086, 19.266118], [-98.855228, 19.266346], [-98.85597, 19.265147], [-98.856541, 19.263148], [-98.855913, 19.261892], [-98.855627, 19.259322], [-98.857284, 19.258066], [-98.860482, 19.256867], [-98.861681, 19.254297], [-98.862537, 19.251556], [-98.864022, 19.249271], [-98.865964, 19.247958], [-98.868705, 19.245902], [-98.870875, 19.244075], [-98.872017, 19.241448], [-98.872645, 19.238136], [-98.875558, 19.235966], [-98.878699, 19.23311], [-98.882868, 19.231111], [-98.886465, 19.228713], [-98.888864, 19.226828], [-98.892633, 19.224144], [-98.892976, 19.22146], [-98.894346, 19.218891], [-98.896174, 19.218091], [-98.898629, 19.216778], [-98.900571, 19.214722], [-98.901599, 19.212209], [-98.901484, 19.209354], [-98.902227, 19.205984], [-98.903369, 19.205356], [-98.903883, 19.203643], [-98.902969, 19.203015], [-98.903141, 19.202215], [-98.90474, 19.202044], [-98.905082, 19.200845], [-98.906681, 19.201016], [-98.907995, 19.201873], [-98.909194, 19.202272], [-98.910165, 19.202958], [-98.910964, 19.2041], [-98.912049, 19.205756], [-98.914448, 19.206041], [-98.916161, 19.207412], [-98.918217, 19.207812], [-98.919816, 19.206555], [-98.924442, 19.206441], [-98.926954, 19.207526], [-98.929467, 19.207355], [-98.931009, 19.207069], [-98.932037, 19.206327], [-98.933293, 19.206441], [-98.936148, 19.206841], [-98.939803, 19.206955], [-98.940032, 19.207698], [-98.941003, 19.208269], [-98.941859, 19.206555], [-98.943173, 19.206327], [-98.944372, 19.20627], [-98.946256, 19.206156], [-98.947741, 19.206384], [-98.948369, 19.207412], [-98.949569, 19.207298], [-98.949569, 19.206213], [-98.949569, 19.205527], [-98.95014, 19.204899], [-98.951396, 19.204671], [-98.952767, 19.204728], [-98.95368, 19.205527], [-98.954594, 19.206213], [-98.955051, 19.207469], [-98.957564, 19.207469], [-98.958192, 19.20667], [-98.959163, 19.206156], [-98.960533, 19.205642], [-98.962475, 19.205242], [-98.963389, 19.20587], [-98.963446, 19.207698], [-98.964188, 19.208725], [-98.965673, 19.20884], [-98.966986, 19.208897], [-98.967443, 19.209354], [-98.966358, 19.20981], [-98.965844, 19.210553], [-98.966587, 19.211124], [-98.968871, 19.211638], [-98.970527, 19.211923], [-98.971441, 19.21278], [-98.971498, 19.214322], [-98.972583, 19.21455], [-98.973268, 19.213808], [-98.974639, 19.213865], [-98.976181, 19.215179], [-98.977208, 19.218605], [-98.978636, 19.221061], [-98.981377, 19.222317], [-98.984632, 19.22226], [-98.988116, 19.222774], [-98.989379, 19.223737], [-98.991271, 19.227521], [-98.991485, 19.233089], [-98.992841, 19.234838], [-98.993734, 19.23573], [-98.994233, 19.236479], [-98.994805, 19.237836], [-98.995376, 19.239799], [-98.996232, 19.241905], [-98.996625, 19.243654], [-98.997196, 19.244724], [-98.998588, 19.245545], [-98.999801, 19.246081], [-98.999908, 19.247187], [-98.999908, 19.249364], [-99.001443, 19.249507], [-99.003371, 19.249221], [-99.00387, 19.248936], [-99.005298, 19.248757], [-99.006048, 19.24965], [-99.007654, 19.250078], [-99.008796, 19.250863], [-99.009295, 19.251756], [-99.010331, 19.253612], [-99.011473, 19.253576], [-99.014685, 19.254325], [-99.017326, 19.255789], [-99.019718, 19.255753], [-99.021038, 19.256574], [-99.022287, 19.258073], [-99.023929, 19.258573], [-99.026321, 19.25893], [-99.02757, 19.259287], [-99.028034, 19.258573], [-99.028712, 19.258573], [-99.031888, 19.258573], [-99.03403, 19.258644], [-99.034708, 19.25918], [-99.035386, 19.258573], [-99.036671, 19.257609], [-99.038277, 19.256039], [-99.039098, 19.255539], [-99.040919, 19.255967], [-99.044238, 19.255896], [-99.045969, 19.255265], [-99.048348, 19.253748], [-99.050371, 19.252321], [-99.051471, 19.250685], [-99.052721, 19.250596], [-99.054505, 19.250953], [-99.055784, 19.251161], [-99.057866, 19.251072], [-99.058907, 19.251339], [-99.0598, 19.252172], [-99.060454, 19.253064], [-99.061941, 19.253897], [-99.062744, 19.253957], [-99.064053, 19.254046], [-99.065302, 19.253986], [-99.0667, 19.253629], [-99.067979, 19.252797], [-99.068901, 19.251696], [-99.069674, 19.250358], [-99.069912, 19.249287], [-99.069526, 19.248514], [-99.069704, 19.247443], [-99.06896, 19.24664], [-99.068425, 19.246104], [-99.068841, 19.245182], [-99.069793, 19.245182], [-99.070745, 19.245093], [-99.071161, 19.244766], [-99.071667, 19.244736], [-99.072559, 19.244736], [-99.073511, 19.245212], [-99.07479, 19.245331], [-99.076099, 19.245034], [-99.076813, 19.244974], [-99.0783, 19.244974], [-99.078746, 19.244647], [-99.07943, 19.24429], [-99.079728, 19.243903], [-99.080203, 19.243398], [-99.080769, 19.243071], [-99.081542, 19.243071], [-99.082375, 19.243071], [-99.08297, 19.24316], [-99.083683, 19.243517], [-99.084189, 19.244231], [-99.084397, 19.244617], [-99.084814, 19.245212], [-99.085408, 19.24551], [-99.086241, 19.245718], [-99.087372, 19.24551], [-99.087996, 19.245153], [-99.088888, 19.244677], [-99.089483, 19.244171], [-99.090554, 19.243933], [-99.091149, 19.243784], [-99.091655, 19.244469], [-99.092185, 19.246469], [-99.092023, 19.246425], [-99.091609, 19.24604], [-99.091167, 19.245554], [-99.090624, 19.245469], [-99.090124, 19.245369], [-99.089396, 19.245397], [-99.088925, 19.245526], [-99.088454, 19.245711], [-99.088026, 19.245968], [-99.087572, 19.246263], [-99.086982, 19.246606], [-99.086477, 19.246634], [-99.084945, 19.246158], [-99.084231, 19.245749], [-99.083317, 19.245444], [-99.082784, 19.245244], [-99.081832, 19.245159], [-99.080985, 19.245216], [-99.080272, 19.245463], [-99.079396, 19.245777], [-99.079167, 19.24613], [-99.078387, 19.246434], [-99.077702, 19.246682], [-99.076769, 19.246758], [-99.075808, 19.246853], [-99.074675, 19.246834], [-99.073809, 19.246948], [-99.072657, 19.247243], [-99.072162, 19.247405], [-99.071877, 19.247672], [-99.071829, 19.248024], [-99.071896, 19.248614], [-99.072077, 19.249375], [-99.071991, 19.249994], [-99.071876, 19.250743], [-99.071733, 19.251048], [-99.071495, 19.251509], [-99.071267, 19.251752], [-99.071014, 19.252266], [-99.070853, 19.252613], [-99.070581, 19.252884], [-99.070172, 19.25327], [-99.069772, 19.253684], [-99.06933, 19.254084], [-99.068744, 19.25456], [-99.068231, 19.255116], [-99.067954, 19.255445], [-99.067602, 19.255673], [-99.067407, 19.256011], [-99.06695, 19.256159], [-99.066294, 19.256159], [-99.065808, 19.256159], [-99.065566, 19.256025], [-99.065437, 19.255887], [-99.065213, 19.255773], [-99.065004, 19.255887], [-99.064733, 19.255987], [-99.064342, 19.256054], [-99.064166, 19.256044], [-99.064033, 19.255973], [-99.063976, 19.255806], [-99.063981, 19.255492], [-99.063895, 19.255245], [-99.063744, 19.25512], [-99.062863, 19.254858], [-99.061912, 19.254858], [-99.061126, 19.255001], [-99.06027, 19.255572], [-99.058795, 19.255525], [-99.058128, 19.255168], [-99.05682, 19.254525], [-99.055796, 19.254002], [-99.054654, 19.253907], [-99.053655, 19.254002], [-99.053036, 19.25424], [-99.05237, 19.254549], [-99.051609, 19.254953], [-99.050704, 19.255144], [-99.049895, 19.255572], [-99.049181, 19.255905], [-99.04823, 19.256167], [-99.047183, 19.256429], [-99.046064, 19.256619], [-99.045232, 19.25669], [-99.044613, 19.256905], [-99.044066, 19.257047], [-99.043257, 19.256714], [-99.04259, 19.256667], [-99.041948, 19.25669], [-99.041282, 19.25669], [-99.040711, 19.256905], [-99.040306, 19.257071], [-99.039711, 19.257119], [-99.039212, 19.257309], [-99.038664, 19.257785], [-99.037927, 19.258309], [-99.037356, 19.258903], [-99.036713, 19.259498], [-99.035833, 19.259855], [-99.035333, 19.260069], [-99.034595, 19.25995], [-99.034357, 19.25976], [-99.033905, 19.259665], [-99.033406, 19.259665], [-99.033001, 19.259689], [-99.032478, 19.259808], [-99.031764, 19.259808], [-99.031264, 19.259593], [-99.02986, 19.259593], [-99.028575, 19.259593], [-99.028242, 19.259736], [-99.027933, 19.259855], [-99.027838, 19.260093], [-99.027386, 19.26045], [-99.026791, 19.26045], [-99.026577, 19.260212], [-99.026196, 19.259712], [-99.025292, 19.259712], [-99.02415, 19.25957], [-99.022936, 19.259237], [-99.022413, 19.258927], [-99.021651, 19.258427], [-99.020628, 19.258023], [-99.019914, 19.257714], [-99.019224, 19.257333], [-99.018439, 19.256976], [-99.018011, 19.256976], [-99.017273, 19.256881], [-99.016511, 19.256809], [-99.016083, 19.256738], [-99.015417, 19.256334], [-99.01506, 19.255834], [-99.014917, 19.255334], [-99.014108, 19.255072], [-99.013442, 19.254953], [-99.012538, 19.254906], [-99.011634, 19.255025], [-99.010753, 19.255144], [-99.009992, 19.254668], [-99.00904, 19.253907], [-99.008659, 19.25324], [-99.008017, 19.252622], [-99.007184, 19.251646], [-99.006232, 19.250885], [-99.005066, 19.250456], [-99.004162, 19.250147], [-99.003377, 19.250171], [-99.002425, 19.250337], [-99.000493, 19.250397], [-98.999503, 19.250016], [-98.999122, 19.249407], [-98.998932, 19.248741], [-98.998894, 19.247541], [-98.998894, 19.246913], [-98.998704, 19.246628], [-98.997904, 19.246514], [-98.996762, 19.245733], [-98.996324, 19.244915], [-98.996039, 19.244229], [-98.99562, 19.243316], [-98.995277, 19.242021], [-98.99482, 19.240765], [-98.994078, 19.239128], [-98.993412, 19.238005], [-98.99286, 19.235949], [-98.991851, 19.234616], [-98.99088, 19.233836], [-98.989985, 19.232789], [-98.988843, 19.231323], [-98.986768, 19.230067], [-98.983818, 19.229096], [-98.980981, 19.228125], [-98.977003, 19.227173], [-98.972663, 19.226107], [-98.968323, 19.225441], [-98.962593, 19.225041], [-98.961413, 19.224832], [-98.958443, 19.224946], [-98.956425, 19.22487], [-98.952885, 19.22487], [-98.949668, 19.224946], [-98.947117, 19.224832], [-98.944795, 19.224794], [-98.942149, 19.224775], [-98.937556, 19.224956], [-98.935819, 19.225194], [-98.932631, 19.225384], [-98.929823, 19.225622], [-98.928015, 19.225836], [-98.92642, 19.226241], [-98.923589, 19.226883], [-98.922566, 19.227597], [-98.921566, 19.228406], [-98.920043, 19.229358], [-98.918901, 19.230524], [-98.918045, 19.23138], [-98.917593, 19.232641], [-98.917259, 19.234426], [-98.917212, 19.235568], [-98.91695, 19.237091], [-98.916665, 19.238947], [-98.916583, 19.239678], [-98.916569, 19.239803], [-98.916165, 19.241136], [-98.915856, 19.242016], [-98.915118, 19.242587], [-98.914594, 19.243158], [-98.913976, 19.243658], [-98.912976, 19.244634], [-98.911668, 19.2458], [-98.910882, 19.246633], [-98.910192, 19.247323], [-98.908646, 19.248512], [-98.907932, 19.249535], [-98.907242, 19.25044], [-98.906504, 19.251939], [-98.905624, 19.252724], [-98.905077, 19.253271], [-98.90441, 19.254556], [-98.903887, 19.255698], [-98.903244, 19.257055], [-98.902412, 19.257745], [-98.90077, 19.258815], [-98.899842, 19.259815], [-98.898295, 19.261195], [-98.89632, 19.262837], [-98.895202, 19.264312], [-98.893917, 19.265835], [-98.89287, 19.267358], [-98.891942, 19.268809], [-98.891038, 19.270427], [-98.890229, 19.272045], [-98.889444, 19.273925], [-98.888968, 19.275376], [-98.888373, 19.27709], [-98.888159, 19.278755], [-98.888325, 19.280183], [-98.888587, 19.281611], [-98.88892, 19.283181], [-98.889515, 19.284585], [-98.890395, 19.286227], [-98.891418, 19.287631], [-98.892323, 19.288678], [-98.893631, 19.289725], [-98.89528, 19.291033], [-98.896446, 19.291533], [-98.897731, 19.292223], [-98.899729, 19.292842], [-98.901419, 19.293329], [-98.903417, 19.293484], [-98.904429, 19.293496], [-98.905737, 19.293199], [-98.906701, 19.292818], [-98.907998, 19.292497], [-98.908866, 19.292175], [-98.9083, 19.292752], [-98.908028, 19.293345], [-98.9078, 19.293809], [-98.90765, 19.294137], [-98.9075, 19.294751], [-98.907379, 19.295422], [-98.907329, 19.2959], [-98.9075, 19.296514], [-98.907686, 19.297035], [-98.907893, 19.297642], [-98.908292, 19.298227], [-98.908714, 19.298577], [-98.909142, 19.298884], [-98.909449, 19.299091], [-98.909956, 19.299262], [-98.91047, 19.299412], [-98.911133, 19.299527], [-98.911326, 19.299719], [-98.911412, 19.300347], [-98.91134, 19.300904], [-98.91134, 19.30119], [-98.911547, 19.301425], [-98.911783, 19.301525], [-98.912147, 19.301532], [-98.912597, 19.301532], [-98.912889, 19.301654], [-98.913118, 19.301882], [-98.913382, 19.302253], [-98.913668, 19.302596], [-98.913882, 19.302832], [-98.91411, 19.303053], [-98.914396, 19.303181], [-98.914888, 19.303224], [-98.915631, 19.303203], [-98.91628, 19.303231], [-98.916659, 19.303381], [-98.917044, 19.303403], [-98.917722, 19.303481], [-98.918515, 19.303531], [-98.918864, 19.303588], [-98.919027, 19.303466], [-98.91945, 19.304141], [-98.920235, 19.30464], [-98.920949, 19.305297], [-98.921577, 19.30584], [-98.92279, 19.306696], [-98.92369, 19.30701], [-98.925089, 19.307681], [-98.926731, 19.308509], [-98.927987, 19.309066], [-98.9294, 19.309894], [-98.932313, 19.311279], [-98.933998, 19.312007], [-98.93534, 19.31285], [-98.937652, 19.31432], [-98.939708, 19.315676], [-98.940722, 19.316533], [-98.94195, 19.317704], [-98.94322, 19.318746], [-98.943949, 19.319474], [-98.944748, 19.320688], [-98.945419, 19.321587], [-98.946004, 19.322615], [-98.946704, 19.323557], [-98.947746, 19.324428], [-98.948546, 19.324742], [-98.949317, 19.324871], [-98.950159, 19.324928], [-98.951315, 19.324956], [-98.952315, 19.324985], [-98.953128, 19.324699], [-98.953542, 19.324514], [-98.954213, 19.324142], [-98.95497, 19.323728], [-98.955627, 19.323486], [-98.956426, 19.323072], [-98.957197, 19.322529], [-98.958083, 19.321701], [-98.958525, 19.320645], [-98.959253, 19.319331], [-98.959681, 19.317675], [-98.959881, 19.315805], [-98.960281, 19.314391], [-98.960609, 19.313206], [-98.960909, 19.312179], [-98.961438, 19.310979], [-98.962094, 19.309837], [-98.962865, 19.308595], [-98.963408, 19.307824], [-98.964336, 19.30701], [-98.965135, 19.306496], [-98.966349, 19.306297], [-98.96702, 19.306139], [-98.968119, 19.305311], [-98.968747, 19.304441], [-98.969061, 19.302984], [-98.96959, 19.301657], [-98.970132, 19.300586], [-98.97106, 19.299715], [-98.971931, 19.299058], [-98.972902, 19.298359], [-98.974215, 19.297859], [-98.974986, 19.297659], [-98.976528, 19.297531], [-98.977727, 19.297231], [-98.979184, 19.296974], [-98.980097, 19.296603], [-98.981211, 19.295917], [-98.982125, 19.295489], [-98.982667, 19.295032], [-98.983452, 19.294176], [-98.98468, 19.293119], [-98.986379, 19.291577], [-98.987664, 19.290949], [-98.988678, 19.290763], [-98.990062, 19.290449], [-98.991533, 19.290735], [-98.99326, 19.291078], [-98.995102, 19.291691], [-98.996516, 19.292477], [-98.998314, 19.293433], [-99.000028, 19.293647], [-99.00244, 19.293861], [-99.003682, 19.29419], [-99.005167, 19.294761], [-99.006838, 19.295175], [-99.008708, 19.29566], [-99.010521, 19.295846], [-99.011706, 19.296217], [-99.012463, 19.296731], [-99.014276, 19.297502], [-99.015518, 19.297802], [-99.017174, 19.298187], [-99.018088, 19.298601], [-99.019216, 19.299201], [-99.020615, 19.300043], [-99.0217, 19.3005], [-99.022642, 19.300957], [-99.023955, 19.301471], [-99.024998, 19.301671], [-99.026325, 19.301956], [-99.026925, 19.301856], [-99.02821, 19.301485], [-99.029109, 19.301285], [-99.030109, 19.300786], [-99.031294, 19.300315], [-99.032165, 19.299915], [-99.032878, 19.299487], [-99.034535, 19.299301], [-99.036091, 19.299586], [-99.037176, 19.299843], [-99.038589, 19.300272], [-99.039917, 19.3009], [-99.040759, 19.301628], [-99.041516, 19.302199], [-99.041916, 19.302813], [-99.042244, 19.303427], [-99.042958, 19.304455], [-99.043757, 19.305311], [-99.044614, 19.305868], [-99.045585, 19.306011], [-99.046327, 19.305982], [-99.047112, 19.305883], [-99.047726, 19.305668], [-99.048397, 19.305383], [-99.049197, 19.305611], [-99.050453, 19.30584], [-99.051538, 19.305811], [-99.052523, 19.305811], [-99.05358, 19.305626], [-99.053937, 19.30524], [-99.054179, 19.30494], [-99.054822, 19.304583], [-99.055171, 19.304394], [-99.055945, 19.304263], [-99.057087, 19.304311], [-99.057943, 19.304037], [-99.058265, 19.303621], [-99.058764, 19.303157], [-99.058967, 19.302597], [-99.059288, 19.301539], [-99.059276, 19.300825], [-99.059121, 19.300182], [-99.058955, 19.299159], [-99.058633, 19.298255], [-99.058324, 19.297589], [-99.058253, 19.296815], [-99.058467, 19.296125], [-99.058871, 19.29553], [-99.059312, 19.29484], [-99.059799, 19.294376], [-99.060287, 19.294103], [-99.061037, 19.294031], [-99.062072, 19.294234], [-99.062905, 19.294424], [-99.063392, 19.294781], [-99.064178, 19.295304], [-99.06438, 19.29584], [-99.06482, 19.295982], [-99.065094, 19.296125], [-99.06507, 19.296482], [-99.065165, 19.296696], [-99.065474, 19.296839], [-99.066355, 19.296839], [-99.067152, 19.296899], [-99.06789, 19.297101], [-99.068273, 19.297337], [-99.06863, 19.297885], [-99.068916, 19.298551], [-99.069225, 19.29936], [-99.069511, 19.300002], [-99.069844, 19.300764], [-99.070225, 19.301287], [-99.070629, 19.301763], [-99.070891, 19.302334], [-99.070962, 19.303024], [-99.070843, 19.303524], [-99.070439, 19.304071], [-99.069844, 19.304571], [-99.068749, 19.304737], [-99.067798, 19.304761], [-99.066989, 19.305094], [-99.066417, 19.305451], [-99.065656, 19.305761], [-99.065037, 19.306165], [-99.064514, 19.306903], [-99.064181, 19.307426], [-99.064062, 19.308449], [-99.064062, 19.309615], [-99.063919, 19.310353], [-99.063876, 19.310592], [-99.0638, 19.311019], [-99.063776, 19.31228], [-99.063776, 19.313399], [-99.063681, 19.314541], [-99.063324, 19.315897], [-99.063277, 19.317158], [-99.063205, 19.318491], [-99.06307, 19.31939], [-99.062991, 19.319918], [-99.062515, 19.320608], [-99.062158, 19.321037], [-99.061682, 19.321536], [-99.061111, 19.321988], [-99.060516, 19.322607], [-99.060088, 19.323178], [-99.059446, 19.323583], [-99.058684, 19.323987], [-99.058066, 19.324487], [-99.056971, 19.324963], [-99.056138, 19.325486], [-99.055258, 19.326105], [-99.054592, 19.326581], [-99.05383, 19.327604], [-99.053259, 19.328437], [-99.052831, 19.329127], [-99.052165, 19.329983], [-99.051736, 19.33084], [-99.051665, 19.332339], [-99.051689, 19.333791], [-99.051712, 19.335004], [-99.051522, 19.336503], [-99.051355, 19.337336], [-99.051046, 19.338288], [-99.050737, 19.338692], [-99.050047, 19.339121], [-99.049452, 19.33943], [-99.048809, 19.339382], [-99.048238, 19.339311], [-99.047644, 19.339382], [-99.046835, 19.339763], [-99.045811, 19.339692], [-99.044907, 19.339668], [-99.044146, 19.339525], [-99.043432, 19.339787], [-99.042599, 19.340191], [-99.042123, 19.340429], [-99.041029, 19.341], [-99.040362, 19.341405], [-99.039886, 19.341786], [-99.038816, 19.342119], [-99.037721, 19.342119], [-99.036365, 19.342024], [-99.034794, 19.342071], [-99.033605, 19.34238], [-99.032867, 19.342714], [-99.03201, 19.343237], [-99.031677, 19.343594], [-99.030821, 19.344213], [-99.030226, 19.344974], [-99.029845, 19.345664], [-99.029393, 19.34633], [-99.02887, 19.347044], [-99.02856, 19.34771], [-99.028061, 19.348448], [-99.027204, 19.349495], [-99.026609, 19.350256], [-99.02599, 19.350899], [-99.024991, 19.351613], [-99.024444, 19.352017], [-99.023587, 19.35235], [-99.022207, 19.352755], [-99.021327, 19.352755], [-99.020531, 19.352622], [-99.020327, 19.352588], [-99.019495, 19.35216], [-99.0189, 19.351684], [-99.018138, 19.351089], [-99.017305, 19.35059], [-99.016734, 19.350209], [-99.015949, 19.349995], [-99.015426, 19.350114], [-99.014855, 19.350471], [-99.01464, 19.351303], [-99.014379, 19.35197], [-99.013808, 19.352612], [-99.013046, 19.35304], [-99.01238, 19.353421], [-99.011975, 19.353897], [-99.011452, 19.354373], [-99.011357, 19.354777], [-99.010833, 19.355253], [-99.010311, 19.356011], [-99.009926, 19.356539], [-99.009412, 19.357282], [-99.009055, 19.357767], [-99.008683, 19.358338], [-99.008484, 19.358752], [-99.007684, 19.358995], [-99.006513, 19.358995], [-99.0051, 19.358952], [-99.003958, 19.358938], [-99.003201, 19.358838], [-99.002173, 19.358538], [-99.001245, 19.358253], [-98.999603, 19.358267], [-98.998747, 19.358267], [-98.997376, 19.358395], [-98.996577, 19.358338], [-98.995834, 19.35841], [-98.995049, 19.358353], [-98.993993, 19.358324], [-98.992793, 19.35831], [-98.991808, 19.35851], [-98.990723, 19.358681], [-98.989396, 19.358852], [-98.988211, 19.358981], [-98.987411, 19.358881], [-98.986497, 19.358667], [-98.985741, 19.358438], [-98.985255, 19.358067], [-98.984256, 19.357596], [-98.983628, 19.357168], [-98.982671, 19.356654], [-98.981643, 19.356411], [-98.980915, 19.356382], [-98.980458, 19.356568], [-98.979402, 19.356882], [-98.979031, 19.357139], [-98.978774, 19.357367], [-98.978231, 19.357596], [-98.97746, 19.35781], [-98.976932, 19.35781], [-98.976147, 19.357567], [-98.975447, 19.357553], [-98.974719, 19.357567], [-98.97392, 19.357624], [-98.973091, 19.35772], [-98.972558, 19.357805], [-98.97194, 19.35791], [-98.971074, 19.357958], [-98.970203, 19.35782], [-98.969951, 19.35751], [-98.969713, 19.35721], [-98.969189, 19.356768], [-98.968385, 19.356382], [-98.967752, 19.356011], [-98.966962, 19.355678], [-98.965948, 19.355312], [-98.964911, 19.355174], [-98.964002, 19.355031], [-98.963226, 19.355093], [-98.962139, 19.355469], [-98.960949, 19.355826], [-98.959938, 19.356331], [-98.959135, 19.356956], [-98.958153, 19.35761], [-98.957588, 19.358354], [-98.957201, 19.359752], [-98.95738, 19.36109], [-98.957529, 19.362399], [-98.957886, 19.363291], [-98.957975, 19.364421], [-98.958004, 19.365819], [-98.958213, 19.36686], [-98.958361, 19.368407], [-98.958718, 19.369478], [-98.959551, 19.370995], [-98.960354, 19.372898], [-98.961009, 19.374802], [-98.961128, 19.375932], [-98.961306, 19.377895], [-98.96202, 19.37959], [-98.963061, 19.381821], [-98.964221, 19.383546], [-98.964875, 19.384587], [-98.965767, 19.385747], [-98.967493, 19.386699], [-98.969307, 19.387681], [-98.971062, 19.388632], [-98.972906, 19.39003], [-98.973828, 19.391071], [-98.975018, 19.39235], [-98.976386, 19.394492], [-98.977427, 19.396663], [-98.978349, 19.398775], [-98.979176, 19.402461], [-98.979223, 19.404698], [-98.979052, 19.40899], [-98.978795, 19.410589], [-98.978367, 19.41186], [-98.977953, 19.413245], [-98.977282, 19.414572], [-98.976525, 19.416171], [-98.975783, 19.417299], [-98.974926, 19.418456], [-98.974241, 19.419584], [-98.972827, 19.42134], [-98.971971, 19.422282], [-98.970557, 19.423139], [-98.969587, 19.423624], [-98.967945, 19.424481], [-98.966788, 19.424823], [-98.965489, 19.425137], [-98.963961, 19.425508], [-98.962434, 19.425623], [-98.961163, 19.425708], [-98.95985, 19.42588], [-98.958451, 19.425494], [-98.957408, 19.425237], [-98.956009, 19.425023], [-98.95491, 19.424809], [-98.953953, 19.42468], [-98.951683, 19.424338], [-98.950741, 19.424095], [-98.949499, 19.423738], [-98.948043, 19.423381], [-98.946986, 19.422981], [-98.946073, 19.422667], [-98.944888, 19.42241], [-98.943631, 19.422296], [-98.942989, 19.421954], [-98.942418, 19.421525], [-98.941547, 19.421325], [-98.940947, 19.420968], [-98.940462, 19.420426], [-98.939691, 19.420226], [-98.939091, 19.420098], [-98.938363, 19.419755], [-98.937849, 19.419469], [-98.937021, 19.419027], [-98.935851, 19.418384], [-98.93498, 19.418013], [-98.93408, 19.417728], [-98.932995, 19.417442], [-98.931796, 19.417456], [-98.930168, 19.417385], [-98.928955, 19.417442], [-98.928241, 19.417499], [-98.927684, 19.417571], [-98.926442, 19.417385], [-98.9259, 19.417199], [-98.925143, 19.417285], [-98.924201, 19.417499], [-98.923358, 19.418242], [-98.92253, 19.418613], [-98.921688, 19.419013], [-98.921145, 19.419255], [-98.919848, 19.419453], [-98.919419, 19.41962], [-98.918539, 19.419798], [-98.917718, 19.420239], [-98.917159, 19.420619], [-98.916873, 19.421059], [-98.916707, 19.421559], [-98.916612, 19.422106], [-98.916469, 19.423356], [-98.916374, 19.424486], [-98.916386, 19.425854], [-98.916469, 19.426758], [-98.91654, 19.427484], [-98.916612, 19.428555], [-98.916873, 19.429566], [-98.917147, 19.430387], [-98.917397, 19.431363], [-98.917575, 19.432148], [-98.917849, 19.43279], [-98.918063, 19.433623], [-98.918301, 19.434765], [-98.918599, 19.435431], [-98.919253, 19.436336], [-98.919586, 19.436942], [-98.920002, 19.437442], [-98.92049, 19.438144], [-98.9208, 19.43887], [-98.921264, 19.43956], [-98.921775, 19.440202], [-98.922287, 19.440797], [-98.922727, 19.441487], [-98.923036, 19.442451], [-98.923096, 19.443379], [-98.923143, 19.444259], [-98.92306, 19.445342], [-98.922977, 19.446198], [-98.922751, 19.446996], [-98.922501, 19.447864], [-98.92212, 19.449244], [-98.922037, 19.450065], [-98.921751, 19.453313], [-98.921561, 19.455133], [-98.921228, 19.455752], [-98.92099, 19.45624], [-98.920847, 19.456966], [-98.92055, 19.45787], [-98.920264, 19.458584], [-98.920014, 19.459452], [-98.919741, 19.460594], [-98.919515, 19.461772], [-98.91936, 19.462748], [-98.919324, 19.463545], [-98.918896, 19.464199], [-98.918349, 19.464627], [-98.917897, 19.46521], [-98.917242, 19.465912], [-98.916957, 19.46646], [-98.91654, 19.467031], [-98.91629, 19.467994], [-98.916171, 19.468827], [-98.915826, 19.469767], [-98.915672, 19.470374], [-98.915243, 19.471159], [-98.914851, 19.472349], [-98.914458, 19.473158], [-98.914089, 19.474145], [-98.913863, 19.475704], [-98.913709, 19.476656], [-98.913578, 19.477679], [-98.913602, 19.478393], [-98.913685, 19.479249], [-98.913887, 19.480153], [-98.914125, 19.48151], [-98.914399, 19.482247], [-98.914684, 19.483068], [-98.914994, 19.484032], [-98.915398, 19.485115], [-98.915767, 19.485531], [-98.916088, 19.486066], [-98.916481, 19.48653], [-98.91685, 19.486709], [-98.917315, 19.487097], [-98.917909, 19.487722], [-98.918415, 19.488317], [-98.91901, 19.488644], [-98.919566, 19.48936], [-98.920251, 19.489988], [-98.92058, 19.490459], [-98.920837, 19.491044], [-98.92135, 19.49153], [-98.921779, 19.492072], [-98.92225, 19.492444], [-98.922507, 19.492943], [-98.922821, 19.493257], [-98.923049, 19.493786], [-98.923306, 19.494214], [-98.923463, 19.494699], [-98.923749, 19.49517], [-98.923996, 19.495968], [-98.924293, 19.496741], [-98.92465, 19.497824], [-98.925233, 19.498835], [-98.925507, 19.499394], [-98.926042, 19.499644], [-98.926339, 19.500037], [-98.926684, 19.50062], [-98.926899, 19.500905], [-98.927113, 19.501405], [-98.927148, 19.501857], [-98.926982, 19.502761], [-98.926875, 19.503403], [-98.926875, 19.503951], [-98.927089, 19.504974], [-98.927303, 19.505497], [-98.927696, 19.506449], [-98.928029, 19.506985], [-98.928231, 19.507234], [-98.928338, 19.508258], [-98.928314, 19.50909], [-98.928338, 19.509673], [-98.928255, 19.510673], [-98.9281, 19.511279], [-98.927934, 19.511874], [-98.927767, 19.512398], [-98.927779, 19.513159], [-98.927898, 19.513861], [-98.927969, 19.514646], [-98.92835, 19.515408], [-98.9286, 19.516145], [-98.929016, 19.516895], [-98.92929, 19.517383], [-98.929647, 19.518025], [-98.930016, 19.51868], [-98.930385, 19.519203], [-98.93086, 19.520012], [-98.931217, 19.520619], [-98.93186, 19.521297], [-98.932264, 19.52188], [-98.932586, 19.522403], [-98.93318, 19.522748], [-98.933585, 19.523094], [-98.934263, 19.523379], [-98.935227, 19.523986], [-98.935857, 19.524129], [-98.937047, 19.524509], [-98.937785, 19.524747], [-98.938808, 19.524914], [-98.939914, 19.525223], [-98.940557, 19.525699], [-98.94114, 19.525996], [-98.941818, 19.526413], [-98.942353, 19.527079], [-98.942591, 19.527769], [-98.942853, 19.528388], [-98.943019, 19.528852], [-98.943031, 19.529423], [-98.942889, 19.530101], [-98.942306, 19.530898], [-98.941854, 19.531648], [-98.941366, 19.531957], [-98.940783, 19.53273], [-98.940592, 19.53342], [-98.940069, 19.534051], [-98.9397, 19.534717], [-98.939236, 19.535027], [-98.938927, 19.535788], [-98.938261, 19.536716], [-98.937999, 19.53812], [-98.937808, 19.539048], [-98.937463, 19.540083], [-98.937452, 19.541344], [-98.937618, 19.54245], [-98.937904, 19.543021], [-98.938356, 19.543557], [-98.938617, 19.543997], [-98.938915, 19.544628], [-98.93945, 19.545175], [-98.939867, 19.545591], [-98.94045, 19.546353], [-98.940842, 19.546733], [-98.941318, 19.547114], [-98.942032, 19.547792], [-98.943091, 19.548054], [-98.943852, 19.547935], [-98.94434, 19.547554], [-98.945351, 19.546722], [-98.945815, 19.546222], [-98.946803, 19.54546], [-98.947743, 19.544509], [-98.9481, 19.544057], [-98.948897, 19.543414], [-98.949801, 19.542605], [-98.950717, 19.541689], [-98.951149, 19.541241], [-98.951681, 19.54069], [-98.952442, 19.540107], [-98.953156, 19.539536], [-98.954024, 19.538976], [-98.954976, 19.538631], [-98.956035, 19.538322], [-98.957118, 19.538548], [-98.957998, 19.538727], [-98.958284, 19.538917], [-98.958545, 19.53925], [-98.958795, 19.539547], [-98.959105, 19.54], [-98.959402, 19.540392], [-98.959759, 19.540939], [-98.960152, 19.541784], [-98.96058, 19.543331], [-98.96052, 19.543938], [-98.960404, 19.544347], [-98.960318, 19.544651], [-98.960247, 19.545413], [-98.960068, 19.546079], [-98.95983, 19.546603], [-98.959581, 19.547316], [-98.959414, 19.548066], [-98.959105, 19.548934], [-98.958653, 19.549732], [-98.958522, 19.550683], [-98.958248, 19.551659], [-98.957927, 19.552753], [-98.957546, 19.553812], [-98.95732, 19.554526], [-98.957201, 19.555169], [-98.956963, 19.555609], [-98.956892, 19.55618], [-98.956725, 19.556596], [-98.956535, 19.556953], [-98.956095, 19.557274], [-98.955761, 19.557679], [-98.955238, 19.558], [-98.954869, 19.558381], [-98.954132, 19.558928], [-98.953751, 19.55938], [-98.953215, 19.559749], [-98.952847, 19.559928], [-98.952133, 19.560463], [-98.951455, 19.560915], [-98.951038, 19.560998], [-98.950669, 19.560951], [-98.950146, 19.560867], [-98.949884, 19.560653], [-98.949492, 19.560356], [-98.949063, 19.559916], [-98.948659, 19.559487], [-98.948361, 19.55913], [-98.947993, 19.558702], [-98.947767, 19.558226], [-98.947386, 19.557893], [-98.947005, 19.55756], [-98.946898, 19.557274], [-98.946363, 19.557072], [-98.945732, 19.556644], [-98.945113, 19.556109], [-98.944756, 19.555692], [-98.944304, 19.555276], [-98.943745, 19.555181], [-98.943246, 19.555181], [-98.942734, 19.555311], [-98.942353, 19.555585], [-98.941818, 19.555799], [-98.941247, 19.556037], [-98.940664, 19.556168], [-98.940128, 19.556489], [-98.939581, 19.557132], [-98.93926, 19.557619], [-98.939022, 19.55831], [-98.938879, 19.559035], [-98.938891, 19.559535], [-98.939141, 19.560058], [-98.939462, 19.560475], [-98.93976, 19.560737], [-98.93989, 19.561296], [-98.939986, 19.561772], [-98.940069, 19.562497], [-98.940343, 19.563176], [-98.940497, 19.563592], [-98.941009, 19.563949], [-98.941235, 19.564163], [-98.941639, 19.56477], [-98.942151, 19.565198], [-98.942674, 19.565674], [-98.943591, 19.566697], [-98.944209, 19.567197], [-98.944792, 19.568244], [-98.945339, 19.56916], [-98.945708, 19.569898], [-98.946969, 19.571278], [-98.947636, 19.57192], [-98.948171, 19.572824], [-98.948778, 19.573455], [-98.949444, 19.574097], [-98.949813, 19.574502], [-98.950574, 19.574764], [-98.951562, 19.575406], [-98.952882, 19.576239], [-98.954001, 19.576774], [-98.954822, 19.577155], [-98.955738, 19.578226], [-98.956356, 19.578868], [-98.957023, 19.579582], [-98.95776, 19.580129], [-98.958843, 19.581212], [-98.959271, 19.581474], [-98.959462, 19.581997], [-98.960092, 19.582235], [-98.960568, 19.582699], [-98.961377, 19.583413], [-98.962686, 19.584519], [-98.96334, 19.584912], [-98.963994, 19.585876], [-98.964637, 19.587077], [-98.965232, 19.588184], [-98.965696, 19.589837], [-98.966291, 19.591134], [-98.966719, 19.592479], [-98.967766, 19.594549], [-98.96804, 19.595976], [-98.968301, 19.596869], [-98.968575, 19.597535], [-98.968991, 19.598951], [-98.969396, 19.599855], [-98.925397, 19.600322], [-98.924921, 19.599132], [-98.921232, 19.596039], [-98.91921, 19.593421], [-98.915879, 19.589495], [-98.911834, 19.587948], [-98.907194, 19.586521], [-98.901721, 19.586402], [-98.898033, 19.584736], [-98.893393, 19.584141], [-98.891846, 19.580334], [-98.891846, 19.575694], [-98.890299, 19.572601], [-98.888277, 19.568794], [-98.887087, 19.562845], [-98.886254, 19.559514]], [[-98.953891, 19.549599], [-98.952909, 19.549508], [-98.952627, 19.549993], [-98.952029, 19.550151], [-98.951442, 19.550479], [-98.951341, 19.550907], [-98.951262, 19.552318], [-98.951296, 19.552927], [-98.951736, 19.553153], [-98.95186, 19.553548], [-98.952398, 19.553684], [-98.952751, 19.553141], [-98.953361, 19.552927], [-98.953936, 19.552871], [-98.954162, 19.552566], [-98.954444, 19.552228], [-98.954748, 19.551991], [-98.955087, 19.551618], [-98.955234, 19.551088], [-98.955076, 19.55058], [-98.954669, 19.549993], [-98.953891, 19.549599]], [[-98.958629, 19.54195], [-98.958333, 19.5419], [-98.957698, 19.541925], [-98.957351, 19.541983], [-98.957145, 19.542098], [-98.957022, 19.542387], [-98.956956, 19.542617], [-98.956857, 19.542766], [-98.9567, 19.542832], [-98.95651, 19.542914], [-98.956477, 19.543087], [-98.956486, 19.543516], [-98.95656, 19.543763], [-98.957005, 19.543862], [-98.957038, 19.544044], [-98.957145, 19.544472], [-98.957533, 19.544563], [-98.959042, 19.544547], [-98.959364, 19.544573], [-98.959396, 19.544085], [-98.959421, 19.543293], [-98.959437, 19.54284], [-98.959165, 19.542766], [-98.958753, 19.542667], [-98.958679, 19.542271], [-98.958629, 19.54195]], [[-99.063514, 19.29796], [-99.062961, 19.296081], [-99.061469, 19.296081], [-99.061469, 19.297076], [-99.061911, 19.298513], [-99.062519, 19.299397], [-99.062685, 19.300779], [-99.062961, 19.302659], [-99.062574, 19.30393], [-99.062906, 19.305091], [-99.063951, 19.305093], [-99.064398, 19.304704], [-99.064841, 19.303267], [-99.065062, 19.300227], [-99.063625, 19.29901], [-99.063514, 19.29796]]], [[[-99.034795, 19.375256], [-99.035213, 19.374534], [-99.034111, 19.37461], [-99.033883, 19.373546], [-99.032704, 19.373394], [-99.031032, 19.373166], [-99.030462, 19.372671], [-99.030158, 19.372139], [-99.02974, 19.371607], [-99.029473, 19.370695], [-99.028865, 19.370581], [-99.027839, 19.369973], [-99.026091, 19.370125], [-99.025863, 19.370847], [-99.025026, 19.370961], [-99.024456, 19.371417], [-99.023962, 19.372025], [-99.023658, 19.372671], [-99.023582, 19.373432], [-99.02305, 19.373508], [-99.023088, 19.373926], [-99.022632, 19.374306], [-99.022366, 19.374724], [-99.02191, 19.374724], [-99.021531, 19.375949], [-99.020997, 19.375294], [-99.020275, 19.37442], [-99.020047, 19.372101], [-99.020161, 19.369403], [-99.020199, 19.367616], [-99.021111, 19.36735], [-99.02153, 19.366058], [-99.023392, 19.364803], [-99.026775, 19.364842], [-99.029017, 19.366362], [-99.029854, 19.368186], [-99.030462, 19.370315], [-99.031146, 19.371721], [-99.032172, 19.372025], [-99.034415, 19.372025], [-99.036125, 19.372329], [-99.036771, 19.373584], [-99.036733, 19.375028], [-99.036087, 19.375712], [-99.035327, 19.376244], [-99.034187, 19.376396], [-99.033769, 19.377119], [-99.03286, 19.378361], [-99.03202, 19.377765], [-99.032514, 19.377271], [-99.033312, 19.37651], [-99.033769, 19.375408], [-99.034795, 19.375256]]], [[[-99.025032, 19.580229], [-99.025163, 19.577968], [-99.025544, 19.577361], [-99.026139, 19.576576], [-99.026282, 19.576184], [-99.02671, 19.575458], [-99.027174, 19.574803], [-99.027662, 19.574137], [-99.028066, 19.573709], [-99.028625, 19.573031], [-99.029089, 19.572305], [-99.029446, 19.571651], [-99.029577, 19.571056], [-99.029815, 19.570104], [-99.030208, 19.569473], [-99.030707, 19.568676], [-99.030898, 19.568177], [-99.031314, 19.567606], [-99.031707, 19.566999], [-99.03198, 19.566428], [-99.032468, 19.565738], [-99.032849, 19.56525], [-99.03317, 19.56481], [-99.033598, 19.564441], [-99.034336, 19.563929], [-99.034467, 19.563775], [-99.035026, 19.563668], [-99.035478, 19.563263], [-99.035918, 19.562954], [-99.036477, 19.562704], [-99.036799, 19.56243], [-99.037263, 19.562371], [-99.037739, 19.561954], [-99.038262, 19.561526], [-99.038833, 19.561217], [-99.039273, 19.560812], [-99.039856, 19.560479], [-99.040439, 19.560146], [-99.041284, 19.559765], [-99.041843, 19.559349], [-99.042688, 19.558992], [-99.043045, 19.558695], [-99.043235, 19.55835], [-99.043449, 19.558016], [-99.043818, 19.557707], [-99.043913, 19.557398], [-99.044235, 19.557088], [-99.044496, 19.556708], [-99.044675, 19.556267], [-99.044877, 19.555934], [-99.045163, 19.555792], [-99.045531, 19.555458], [-99.045555, 19.555102], [-99.045948, 19.554685], [-99.046376, 19.554304], [-99.046876, 19.553912], [-99.04734, 19.553376], [-99.047732, 19.553008], [-99.048137, 19.552591], [-99.048744, 19.552353], [-99.049136, 19.55208], [-99.049541, 19.551877], [-99.050064, 19.551687], [-99.050338, 19.551509], [-99.050469, 19.551033], [-99.050671, 19.550473], [-99.050897, 19.550164], [-99.050968, 19.549688], [-99.050957, 19.548939], [-99.050897, 19.548534], [-99.050671, 19.548023], [-99.05054, 19.54744], [-99.050469, 19.546904], [-99.050278, 19.546333], [-99.050166, 19.545467], [-99.05027, 19.54481], [-99.050499, 19.544258], [-99.050718, 19.543715], [-99.051003, 19.543449], [-99.051346, 19.543173], [-99.051755, 19.542735], [-99.052079, 19.542316], [-99.052402, 19.541935], [-99.052602, 19.541697], [-99.053173, 19.541536], [-99.053782, 19.541345], [-99.054391, 19.541003], [-99.054953, 19.540546], [-99.055791, 19.540013], [-99.056286, 19.53968], [-99.056714, 19.539537], [-99.057047, 19.539251], [-99.057104, 19.538804], [-99.057875, 19.538509], [-99.058646, 19.538366], [-99.059503, 19.538157], [-99.060397, 19.538062], [-99.061663, 19.537881], [-99.062453, 19.537671], [-99.062796, 19.537481], [-99.063319, 19.537157], [-99.063614, 19.536977], [-99.064043, 19.536434], [-99.064499, 19.535911], [-99.064852, 19.535397], [-99.065242, 19.534883], [-99.065623, 19.534388], [-99.065965, 19.53395], [-99.066527, 19.533674], [-99.066993, 19.53355], [-99.067574, 19.533236], [-99.068031, 19.532932], [-99.068602, 19.532732], [-99.069315, 19.532437], [-99.069649, 19.532218], [-99.070229, 19.532189], [-99.070962, 19.532065], [-99.071743, 19.531989], [-99.072485, 19.531761], [-99.073037, 19.531656], [-99.073913, 19.531609], [-99.074331, 19.531285], [-99.074893, 19.531104], [-99.075664, 19.531047], [-99.076501, 19.531218], [-99.077034, 19.531371], [-99.077282, 19.531723], [-99.077977, 19.531866], [-99.078415, 19.531932], [-99.079005, 19.532075], [-99.079357, 19.531951], [-99.079538, 19.531751], [-99.079918, 19.531685], [-99.080442, 19.531611], [-99.080727, 19.531425], [-99.080856, 19.530926], [-99.081255, 19.530469], [-99.081398, 19.529955], [-99.081784, 19.529427], [-99.081926, 19.52867], [-99.082012, 19.528056], [-99.082241, 19.527471], [-99.082383, 19.526743], [-99.082883, 19.526], [-99.083111, 19.525272], [-99.083169, 19.524615], [-99.08324, 19.52413], [-99.083597, 19.523673], [-99.084196, 19.523116], [-99.084596, 19.522774], [-99.085339, 19.522431], [-99.085581, 19.52216], [-99.085767, 19.521831], [-99.086224, 19.521717], [-99.086581, 19.521546], [-99.086938, 19.52126], [-99.086909, 19.520689], [-99.087266, 19.520475], [-99.087494, 19.52009], [-99.087437, 19.519547], [-99.087409, 19.518733], [-99.087295, 19.518205], [-99.087138, 19.517834], [-99.086995, 19.51732], [-99.086966, 19.516349], [-99.086923, 19.515764], [-99.086852, 19.515107], [-99.086909, 19.514265], [-99.086895, 19.513394], [-99.087095, 19.512994], [-99.08738, 19.512866], [-99.088065, 19.512823], [-99.088508, 19.513051], [-99.088722, 19.513251], [-99.088836, 19.513722], [-99.088965, 19.514122], [-99.089236, 19.51455], [-99.089379, 19.514936], [-99.089664, 19.514993], [-99.090307, 19.515093], [-99.090792, 19.515264], [-99.091478, 19.515378], [-99.092049, 19.515678], [-99.092577, 19.515878], [-99.093134, 19.516235], [-99.093776, 19.516249], [-99.094404, 19.516163], [-99.09519, 19.516321], [-99.095818, 19.516435], [-99.096946, 19.51642], [-99.097402, 19.516406], [-99.098045, 19.516392], [-99.098616, 19.516249], [-99.099101, 19.516221], [-99.099358, 19.516092], [-99.099461, 19.515867], [-99.100013, 19.515486], [-99.100413, 19.515258], [-99.100756, 19.514896], [-99.100756, 19.514268], [-99.100756, 19.513545], [-99.100546, 19.512936], [-99.100242, 19.512403], [-99.099975, 19.511717], [-99.099652, 19.511146], [-99.099652, 19.510309], [-99.099747, 19.50949], [-99.099994, 19.508862], [-99.099861, 19.508253], [-99.099652, 19.507586], [-99.099176, 19.506958], [-99.098643, 19.506463], [-99.098205, 19.505854], [-99.097615, 19.505302], [-99.097215, 19.504902], [-99.096644, 19.504484], [-99.096206, 19.504065], [-99.095445, 19.503589], [-99.094683, 19.503075], [-99.094131, 19.502618], [-99.093503, 19.502161], [-99.092856, 19.501762], [-99.09238, 19.501343], [-99.092418, 19.5006], [-99.092532, 19.499972], [-99.092742, 19.499591], [-99.093084, 19.499039], [-99.093465, 19.498792], [-99.093827, 19.498506], [-99.094169, 19.498126], [-99.094474, 19.497802], [-99.094797, 19.497345], [-99.09514, 19.496641], [-99.095483, 19.495899], [-99.09594, 19.495118], [-99.096225, 19.494528], [-99.096377, 19.4939], [-99.096625, 19.493196], [-99.096701, 19.492491], [-99.096796, 19.491692], [-99.096948, 19.491025], [-99.097215, 19.490435], [-99.097367, 19.489864], [-99.097596, 19.489179], [-99.097938, 19.48897], [-99.098357, 19.48897], [-99.099023, 19.488989], [-99.099766, 19.489065], [-99.100166, 19.489198], [-99.100603, 19.489484], [-99.100927, 19.489655], [-99.10146, 19.489655], [-99.102126, 19.489712], [-99.103078, 19.489636], [-99.103839, 19.489636], [-99.104391, 19.489693], [-99.105381, 19.489655], [-99.105952, 19.489579], [-99.106371, 19.489445], [-99.106999, 19.489274], [-99.10738, 19.488836], [-99.107875, 19.488646], [-99.108389, 19.48836], [-99.10877, 19.488094], [-99.108941, 19.48777], [-99.109417, 19.487466], [-99.109912, 19.487256], [-99.110312, 19.486914], [-99.110806, 19.48678], [-99.111149, 19.486438], [-99.111301, 19.485886], [-99.11172, 19.485486], [-99.111949, 19.485029], [-99.112215, 19.484668], [-99.112672, 19.484401], [-99.113224, 19.484287], [-99.113947, 19.484268], [-99.114595, 19.484439], [-99.11507, 19.484782], [-99.115356, 19.485086], [-99.115623, 19.4856], [-99.115623, 19.486324], [-99.11568, 19.487123], [-99.115718, 19.488513], [-99.115718, 19.489122], [-99.115787, 19.490096], [-99.11594, 19.490591], [-99.116187, 19.491086], [-99.116415, 19.491619], [-99.116625, 19.492647], [-99.116701, 19.493466], [-99.116853, 19.493846], [-99.117025, 19.494322], [-99.117196, 19.494608], [-99.117329, 19.495007], [-99.11771, 19.495426], [-99.1179, 19.495845], [-99.118014, 19.496416], [-99.118148, 19.496816], [-99.118338, 19.497101], [-99.118643, 19.497406], [-99.119023, 19.497672], [-99.119575, 19.497882], [-99.119823, 19.497939], [-99.12047, 19.498243], [-99.121022, 19.498472], [-99.121308, 19.498548], [-99.121784, 19.498776], [-99.122069, 19.498853], [-99.122526, 19.499024], [-99.122811, 19.499138], [-99.123249, 19.49929], [-99.123725, 19.49929], [-99.124315, 19.499519], [-99.124867, 19.499595], [-99.125248, 19.4999], [-99.125591, 19.50009], [-99.125971, 19.500471], [-99.126542, 19.500775], [-99.127094, 19.50127], [-99.127342, 19.501613], [-99.127666, 19.501765], [-99.128141, 19.502165], [-99.128389, 19.502774], [-99.128846, 19.503174], [-99.129245, 19.503726], [-99.129474, 19.504106], [-99.129759, 19.504449], [-99.130102, 19.504906], [-99.13035, 19.505496], [-99.130806, 19.506258], [-99.131111, 19.506886], [-99.131454, 19.507457], [-99.13189, 19.508427], [-99.132217, 19.508843], [-99.132604, 19.5092], [-99.13308, 19.509497], [-99.133615, 19.509587], [-99.13427, 19.509587], [-99.134745, 19.509676], [-99.135311, 19.509914], [-99.135816, 19.510033], [-99.136381, 19.510033], [-99.137125, 19.509676], [-99.137631, 19.50917], [-99.138047, 19.508664], [-99.138374, 19.508189], [-99.138642, 19.507623], [-99.13888, 19.507118], [-99.139177, 19.506523], [-99.139296, 19.506107], [-99.139683, 19.505333], [-99.14004, 19.504619], [-99.140486, 19.504025], [-99.140545, 19.503459], [-99.140813, 19.502746], [-99.140754, 19.502151], [-99.140843, 19.50111], [-99.140783, 19.49989], [-99.140575, 19.499385], [-99.140426, 19.497957], [-99.140397, 19.496737], [-99.140545, 19.495339], [-99.140635, 19.494655], [-99.140962, 19.493942], [-99.14117, 19.493317], [-99.141705, 19.493138], [-99.141914, 19.492663], [-99.142211, 19.492157], [-99.142598, 19.49186], [-99.143014, 19.491532], [-99.143133, 19.491205], [-99.143609, 19.490937], [-99.144382, 19.490372], [-99.144799, 19.490045], [-99.145126, 19.489837], [-99.145513, 19.489629], [-99.14581, 19.489123], [-99.146167, 19.488915], [-99.146583, 19.488528], [-99.147119, 19.487963], [-99.147833, 19.487576], [-99.148279, 19.487517], [-99.148784, 19.487398], [-99.14929, 19.487309], [-99.150301, 19.487249], [-99.150837, 19.487071], [-99.151283, 19.487011], [-99.152264, 19.486863], [-99.153246, 19.486803], [-99.15396, 19.486684], [-99.154911, 19.486357], [-99.155387, 19.486089], [-99.155714, 19.485554], [-99.156131, 19.4849], [-99.156607, 19.484275], [-99.156755, 19.48365], [-99.156904, 19.482728], [-99.156726, 19.481896], [-99.156607, 19.480884], [-99.156369, 19.480141], [-99.156012, 19.479427], [-99.155923, 19.478862], [-99.155982, 19.478297], [-99.156339, 19.477702], [-99.156637, 19.476958], [-99.156815, 19.476304], [-99.157142, 19.475828], [-99.15735, 19.475382], [-99.157737, 19.474965], [-99.158094, 19.474638], [-99.158451, 19.474162], [-99.15851, 19.473657], [-99.158778, 19.473062], [-99.159135, 19.472437], [-99.159432, 19.471575], [-99.159551, 19.470682], [-99.159403, 19.46976], [-99.159373, 19.468898], [-99.159254, 19.468005], [-99.158986, 19.466935], [-99.158897, 19.466102], [-99.158778, 19.464912], [-99.158778, 19.463603], [-99.158838, 19.462622], [-99.158867, 19.461313], [-99.158897, 19.460391], [-99.159194, 19.460094], [-99.159522, 19.459677], [-99.159492, 19.459201], [-99.159879, 19.458934], [-99.160235, 19.458755], [-99.160444, 19.45819], [-99.160622, 19.457833], [-99.160889, 19.457567], [-99.161193, 19.457262], [-99.161688, 19.456786], [-99.162221, 19.456158], [-99.162811, 19.45553], [-99.163306, 19.454845], [-99.163725, 19.454445], [-99.164106, 19.453817], [-99.164296, 19.453607], [-99.164658, 19.453512], [-99.164886, 19.453093], [-99.165229, 19.452636], [-99.165571, 19.452484], [-99.165819, 19.452123], [-99.166028, 19.451666], [-99.166314, 19.451209], [-99.166637, 19.450923], [-99.167018, 19.450371], [-99.167532, 19.449762], [-99.167894, 19.449134], [-99.168274, 19.44862], [-99.168389, 19.448163], [-99.168769, 19.447897], [-99.169093, 19.447687], [-99.16915, 19.447211], [-99.169607, 19.44664], [-99.169969, 19.446031], [-99.17054, 19.445174], [-99.17113, 19.444223], [-99.171568, 19.443423], [-99.171796, 19.442719], [-99.171986, 19.442129], [-99.171986, 19.441234], [-99.171834, 19.440397], [-99.171491, 19.439978], [-99.171339, 19.439102], [-99.171339, 19.438055], [-99.171415, 19.436266], [-99.171587, 19.43579], [-99.171967, 19.435257], [-99.172063, 19.434667], [-99.1725, 19.43421], [-99.172862, 19.433753], [-99.173205, 19.433372], [-99.173623, 19.432935], [-99.174252, 19.432554], [-99.174747, 19.432363], [-99.175127, 19.432173], [-99.175222, 19.431811], [-99.175794, 19.431336], [-99.176327, 19.431031], [-99.17686, 19.430536], [-99.177297, 19.430117], [-99.177526, 19.429565], [-99.177602, 19.428804], [-99.177488, 19.428309], [-99.177259, 19.427757], [-99.177012, 19.427433], [-99.176688, 19.427053], [-99.176441, 19.426577], [-99.176269, 19.426006], [-99.176003, 19.425587], [-99.175584, 19.424654], [-99.175565, 19.423988], [-99.175451, 19.423417], [-99.175203, 19.423055], [-99.174861, 19.422674], [-99.174518, 19.422122], [-99.174328, 19.421532], [-99.174156, 19.421151], [-99.174099, 19.420333], [-99.174137, 19.419381], [-99.174366, 19.418848], [-99.174347, 19.418258], [-99.174575, 19.417478], [-99.174899, 19.417382], [-99.175299, 19.417154], [-99.175615, 19.416914], [-99.175824, 19.41661], [-99.176034, 19.416324], [-99.176281, 19.416096], [-99.176472, 19.41581], [-99.176662, 19.415296], [-99.176662, 19.414649], [-99.176643, 19.414116], [-99.176643, 19.413012], [-99.17651, 19.412498], [-99.176357, 19.412193], [-99.176338, 19.41166], [-99.176129, 19.411375], [-99.175786, 19.411299], [-99.175539, 19.410994], [-99.174949, 19.410651], [-99.174663, 19.410461], [-99.173673, 19.410137], [-99.172855, 19.409623], [-99.172093, 19.4089], [-99.171294, 19.408177], [-99.170533, 19.407587], [-99.17, 19.407035], [-99.169657, 19.406444], [-99.169314, 19.405797], [-99.168762, 19.405188], [-99.168248, 19.40437], [-99.167906, 19.403875], [-99.167544, 19.40298], [-99.167829, 19.402123], [-99.168191, 19.40121], [-99.168477, 19.40022], [-99.16842, 19.399249], [-99.168115, 19.398354], [-99.167696, 19.397479], [-99.167108, 19.396914], [-99.166694, 19.396386], [-99.166251, 19.396], [-99.166009, 19.395429], [-99.165423, 19.394729], [-99.164867, 19.394301], [-99.164367, 19.394144], [-99.16361, 19.393859], [-99.162982, 19.393644], [-99.162465, 19.393097], [-99.16225, 19.392561], [-99.162215, 19.391383], [-99.162108, 19.389884], [-99.162036, 19.388135], [-99.161858, 19.386315], [-99.161644, 19.385102], [-99.161572, 19.38271], [-99.160965, 19.381354], [-99.16068, 19.380854], [-99.160252, 19.379855], [-99.159752, 19.379284], [-99.159288, 19.378606], [-99.15861, 19.37782], [-99.157503, 19.377392], [-99.156897, 19.377071], [-99.156326, 19.376678], [-99.155862, 19.376214], [-99.155719, 19.375465], [-99.155826, 19.374715], [-99.156183, 19.373752], [-99.15654, 19.372824], [-99.156575, 19.371646], [-99.15654, 19.370504], [-99.156468, 19.369754], [-99.156183, 19.368469], [-99.155754, 19.367577], [-99.155148, 19.366792], [-99.154398, 19.366078], [-99.154006, 19.365293], [-99.153399, 19.363865], [-99.152828, 19.363294], [-99.152257, 19.362401], [-99.151578, 19.362045], [-99.151043, 19.361402], [-99.15115, 19.360367], [-99.150829, 19.359368], [-99.150222, 19.359154], [-99.149651, 19.358226], [-99.149294, 19.357405], [-99.148723, 19.356726], [-99.148223, 19.35637], [-99.147367, 19.355798], [-99.146189, 19.355477], [-99.145439, 19.355334], [-99.144369, 19.355085], [-99.144369, 19.354335], [-99.143833, 19.35305], [-99.143598, 19.35183], [-99.143227, 19.351401], [-99.143112, 19.35073], [-99.142755, 19.350031], [-99.142627, 19.349317], [-99.142584, 19.348546], [-99.142713, 19.347661], [-99.142798, 19.34709], [-99.142556, 19.34659], [-99.142117, 19.346029], [-99.141532, 19.345372], [-99.140847, 19.344844], [-99.14039, 19.34413], [-99.139919, 19.343659], [-99.139333, 19.343074], [-99.138677, 19.342617], [-99.138006, 19.342032], [-99.137363, 19.341746], [-99.136278, 19.341689], [-99.135436, 19.341789], [-99.134908, 19.342017], [-99.134051, 19.34206], [-99.133223, 19.342103], [-99.132652, 19.341874], [-99.132181, 19.341532], [-99.131481, 19.341032], [-99.130767, 19.340632], [-99.129597, 19.340061], [-99.128597, 19.339376], [-99.127498, 19.338976], [-99.126484, 19.338862], [-99.12587, 19.338862], [-99.125342, 19.338991], [-99.124443, 19.338991], [-99.123743, 19.338834], [-99.123329, 19.338505], [-99.122715, 19.338005], [-99.121987, 19.337534], [-99.121259, 19.33692], [-99.12006, 19.336435], [-99.11936, 19.336207], [-99.117861, 19.336207], [-99.116819, 19.336107], [-99.115734, 19.335593], [-99.11502, 19.335393], [-99.114164, 19.335536], [-99.11355, 19.335864], [-99.113293, 19.336464], [-99.112822, 19.336935], [-99.11225, 19.337663], [-99.111951, 19.338734], [-99.111694, 19.339419], [-99.111451, 19.339976], [-99.111023, 19.340761], [-99.110623, 19.341289], [-99.109923, 19.341889], [-99.109581, 19.342189], [-99.109338, 19.342817], [-99.109138, 19.344173], [-99.109067, 19.345201], [-99.108967, 19.346343], [-99.108867, 19.347185], [-99.108324, 19.348456], [-99.107839, 19.348999], [-99.107482, 19.349684], [-99.106511, 19.350855], [-99.105783, 19.351725], [-99.104869, 19.352611], [-99.104441, 19.353225], [-99.10427, 19.353667], [-99.104298, 19.354367], [-99.104298, 19.355423], [-99.104295, 19.356938], [-99.103943, 19.357899], [-99.103562, 19.358423], [-99.103201, 19.358775], [-99.102801, 19.359241], [-99.102487, 19.359898], [-99.102106, 19.360259], [-99.101735, 19.360536], [-99.100983, 19.360916], [-99.099879, 19.361249], [-99.098946, 19.36163], [-99.098423, 19.361935], [-99.097642, 19.361868], [-99.096414, 19.361925], [-99.095701, 19.36182], [-99.094558, 19.361925], [-99.092055, 19.361954], [-99.090923, 19.361954], [-99.090352, 19.362001], [-99.089971, 19.362173], [-99.089324, 19.36222], [-99.088705, 19.36223], [-99.088353, 19.362249], [-99.088134, 19.362553], [-99.08801, 19.362706], [-99.087725, 19.362648], [-99.087629, 19.362382], [-99.087449, 19.362344], [-99.086649, 19.362306], [-99.086183, 19.36222], [-99.085735, 19.362125], [-99.085177, 19.361643], [-99.084785, 19.360465], [-99.084214, 19.359287], [-99.083714, 19.358609], [-99.083072, 19.358003], [-99.081822, 19.357253], [-99.080395, 19.357146], [-99.079003, 19.356896], [-99.078396, 19.356504], [-99.077968, 19.355825], [-99.077361, 19.355254], [-99.076254, 19.355433], [-99.07497, 19.355468], [-99.073542, 19.355361], [-99.071829, 19.354933], [-99.071115, 19.354291], [-99.070008, 19.353505], [-99.06958, 19.352542], [-99.069187, 19.351649], [-99.069223, 19.349722], [-99.069344, 19.348865], [-99.069587, 19.348223], [-99.069644, 19.347166], [-99.069716, 19.346239], [-99.069673, 19.344825], [-99.069487, 19.343683], [-99.069316, 19.343269], [-99.068616, 19.342355], [-99.068159, 19.341827], [-99.067631, 19.341242], [-99.067246, 19.340699], [-99.066218, 19.339871], [-99.065889, 19.339414], [-99.065447, 19.338772], [-99.06519, 19.337872], [-99.065147, 19.337016], [-99.065119, 19.336159], [-99.065204, 19.335445], [-99.065361, 19.334731], [-99.065504, 19.334032], [-99.065875, 19.333504], [-99.066389, 19.332847], [-99.066646, 19.332333], [-99.067274, 19.331976], [-99.067531, 19.331576], [-99.067931, 19.331105], [-99.068331, 19.330848], [-99.068516, 19.330377], [-99.068916, 19.329934], [-99.069744, 19.329649], [-99.070615, 19.329235], [-99.071357, 19.328907], [-99.071886, 19.328607], [-99.072157, 19.328278], [-99.072328, 19.327907], [-99.072328, 19.327679], [-99.072285, 19.326951], [-99.072171, 19.326408], [-99.071986, 19.325623], [-99.072171, 19.324938], [-99.072747, 19.324683], [-99.073282, 19.324112], [-99.074032, 19.323684], [-99.074567, 19.323256], [-99.075188, 19.322686], [-99.075716, 19.322501], [-99.076516, 19.322301], [-99.077015, 19.322087], [-99.077715, 19.321887], [-99.078448, 19.321482], [-99.079114, 19.32114], [-99.079856, 19.321159], [-99.080846, 19.321026], [-99.082007, 19.321235], [-99.082902, 19.32133], [-99.084425, 19.321444], [-99.085834, 19.321387], [-99.086785, 19.32114], [-99.08728, 19.320816], [-99.088232, 19.32055], [-99.088956, 19.320493], [-99.08985, 19.32074], [-99.090497, 19.320988], [-99.091373, 19.321121], [-99.09223, 19.321178], [-99.09301, 19.321254], [-99.093562, 19.321292], [-99.093867, 19.321597], [-99.094228, 19.322187], [-99.094914, 19.322568], [-99.095561, 19.323043], [-99.096094, 19.323386], [-99.096986, 19.323564], [-99.09745, 19.323659], [-99.098294, 19.323576], [-99.09883, 19.323421], [-99.099246, 19.323242], [-99.09933, 19.32285], [-99.099734, 19.322219], [-99.100174, 19.32172], [-99.100531, 19.32147], [-99.101257, 19.321339], [-99.102316, 19.321279], [-99.103137, 19.321137], [-99.103601, 19.320827], [-99.103993, 19.320351], [-99.104398, 19.319685], [-99.104671, 19.319043], [-99.105005, 19.318579], [-99.105278, 19.317996], [-99.105445, 19.317556], [-99.105528, 19.31708], [-99.105814, 19.316592], [-99.105885, 19.316009], [-99.106147, 19.315676], [-99.106385, 19.315081], [-99.106623, 19.314581], [-99.106884, 19.314105], [-99.107265, 19.313701], [-99.10761, 19.313368], [-99.108122, 19.31338], [-99.109752, 19.313392], [-99.11071, 19.31335], [-99.111573, 19.313037], [-99.112163, 19.312638], [-99.112924, 19.312333], [-99.113248, 19.312105], [-99.1138, 19.311686], [-99.114657, 19.311324], [-99.115646, 19.310848], [-99.116579, 19.310296], [-99.117569, 19.309725], [-99.117931, 19.309097], [-99.118349, 19.30805], [-99.118673, 19.306965], [-99.120006, 19.304433], [-99.120653, 19.303044], [-99.121186, 19.302168], [-99.121757, 19.301216], [-99.121871, 19.300169], [-99.121833, 19.29897], [-99.121928, 19.297466], [-99.122252, 19.296191], [-99.122442, 19.294972], [-99.122671, 19.294173], [-99.123166, 19.293507], [-99.123965, 19.292498], [-99.124498, 19.291679], [-99.124803, 19.290969], [-99.125697, 19.289846], [-99.126097, 19.288932], [-99.126325, 19.287771], [-99.126306, 19.286362], [-99.126306, 19.285239], [-99.126078, 19.283526], [-99.125716, 19.28225], [-99.125393, 19.281622], [-99.125145, 19.28107], [-99.124822, 19.280347], [-99.124593, 19.27949], [-99.12446, 19.2785], [-99.124174, 19.277168], [-99.123756, 19.276007], [-99.12347, 19.274807], [-99.123299, 19.274065], [-99.123413, 19.273151], [-99.12366, 19.272637], [-99.12366, 19.271704], [-99.123584, 19.270524], [-99.12328, 19.269173], [-99.123185, 19.26805], [-99.122818, 19.267355], [-99.121947, 19.266355], [-99.120777, 19.265413], [-99.119677, 19.264285], [-99.118664, 19.263386], [-99.118021, 19.262943], [-99.117222, 19.262629], [-99.116608, 19.262429], [-99.115751, 19.262244], [-99.115109, 19.261858], [-99.114423, 19.261373], [-99.113981, 19.260887], [-99.113453, 19.260459], [-99.112939, 19.259745], [-99.112439, 19.258746], [-99.111996, 19.258118], [-99.111682, 19.257704], [-99.110826, 19.257532], [-99.109912, 19.257104], [-99.109341, 19.256719], [-99.109098, 19.256219], [-99.108941, 19.255548], [-99.108656, 19.254691], [-99.108156, 19.253992], [-99.107842, 19.253535], [-99.107328, 19.252464], [-99.106543, 19.251565], [-99.106043, 19.250951], [-99.105372, 19.250608], [-99.104601, 19.250337], [-99.103859, 19.249909], [-99.103316, 19.249609], [-99.102774, 19.249052], [-99.102003, 19.248738], [-99.101417, 19.248324], [-99.100675, 19.24781], [-99.099747, 19.24751], [-99.098833, 19.247439], [-99.098494, 19.247447], [-99.099167, 19.2463], [-99.100486, 19.245456], [-99.103547, 19.245192], [-99.104227, 19.245226], [-99.10456, 19.247701], [-99.104127, 19.249044], [-99.104287, 19.24961], [-99.105863, 19.250211], [-99.107504, 19.250627], [-99.108401, 19.250205], [-99.109826, 19.250205], [-99.110366, 19.250461], [-99.110382, 19.252802], [-99.111261, 19.253046], [-99.113127, 19.252935], [-99.113256, 19.253688], [-99.113174, 19.254268], [-99.114839, 19.254057], [-99.115472, 19.255218], [-99.115739, 19.255608], [-99.116981, 19.256029], [-99.11741, 19.257409], [-99.11669, 19.259476], [-99.116792, 19.260442], [-99.117583, 19.261498], [-99.118269, 19.262131], [-99.119408, 19.262691], [-99.119536, 19.262131], [-99.120644, 19.262289], [-99.121435, 19.264136], [-99.122385, 19.264189], [-99.122787, 19.262881], [-99.124712, 19.262294], [-99.125119, 19.26331], [-99.124799, 19.265358], [-99.124548, 19.266451], [-99.124929, 19.267545], [-99.12569, 19.268925], [-99.126913, 19.269742], [-99.127236, 19.270389], [-99.128308, 19.270734], [-99.128974, 19.270829], [-99.129069, 19.272209], [-99.128474, 19.272864], [-99.128022, 19.273684], [-99.12826, 19.274826], [-99.129247, 19.275306], [-99.129259, 19.277539], [-99.129545, 19.279157], [-99.130347, 19.279338], [-99.13102, 19.27949], [-99.131056, 19.28191], [-99.131719, 19.282353], [-99.132898, 19.282567], [-99.133638, 19.282774], [-99.134209, 19.282345], [-99.134494, 19.281727], [-99.135256, 19.281108], [-99.13516, 19.279236], [-99.136324, 19.279236], [-99.138063, 19.279236], [-99.138825, 19.277872], [-99.139967, 19.278634], [-99.140586, 19.279728], [-99.14049, 19.280585], [-99.139443, 19.281822], [-99.14011, 19.282583], [-99.141044, 19.283795], [-99.141844, 19.283995], [-99.142009, 19.284193], [-99.143393, 19.284154], [-99.144631, 19.284677], [-99.144297, 19.287057], [-99.145344, 19.289246], [-99.146696, 19.293564], [-99.148507, 19.293703], [-99.150981, 19.291609], [-99.152483, 19.29253], [-99.152245, 19.295861], [-99.151388, 19.297146], [-99.149021, 19.297237], [-99.147935, 19.298081], [-99.146413, 19.300556], [-99.144699, 19.303792], [-99.140131, 19.30779], [-99.140321, 19.310455], [-99.141463, 19.314833], [-99.142415, 19.31864], [-99.141654, 19.322066], [-99.142415, 19.322828], [-99.142225, 19.325493], [-99.144509, 19.328348], [-99.14527, 19.331775], [-99.147935, 19.333678], [-99.151362, 19.332346], [-99.151904, 19.333078], [-99.154813, 19.334241], [-99.153745, 19.335563], [-99.152207, 19.33587], [-99.152207, 19.336848], [-99.152859, 19.338476], [-99.155169, 19.337485], [-99.157834, 19.341483], [-99.171159, 19.342054], [-99.17706, 19.343529], [-99.180712, 19.345725], [-99.182395, 19.34977], [-99.183444, 19.351745], [-99.182829, 19.354547], [-99.180677, 19.35614], [-99.179915, 19.362803], [-99.175918, 19.370607], [-99.177631, 19.373272], [-99.181248, 19.37746], [-99.18239, 19.385646], [-99.18239, 19.392499], [-99.18239, 19.398019], [-99.183096, 19.400138], [-99.184226, 19.403526], [-99.18463, 19.405249], [-99.185652, 19.409602], [-99.183723, 19.413057], [-99.178202, 19.418387], [-99.177821, 19.421242], [-99.184865, 19.420671], [-99.192669, 19.422575], [-99.197619, 19.426001], [-99.199522, 19.432854], [-99.197428, 19.437042], [-99.194954, 19.442943], [-99.196286, 19.454174], [-99.200474, 19.461598], [-99.207707, 19.473591], [-99.211895, 19.48387], [-99.211895, 19.491294], [-99.208469, 19.498908], [-99.206565, 19.506522], [-99.205804, 19.510329], [-99.20371, 19.513946], [-99.195525, 19.517563], [-99.195334, 19.523845], [-99.192479, 19.529365], [-99.190575, 19.535076], [-99.194763, 19.536028], [-99.202568, 19.533553], [-99.212847, 19.530888], [-99.21951, 19.531078], [-99.21951, 19.534885], [-99.213799, 19.539264], [-99.210182, 19.544213], [-99.207707, 19.549353], [-99.202568, 19.549543], [-99.201806, 19.551827], [-99.200855, 19.555444], [-99.194383, 19.554683], [-99.192276, 19.551853], [-99.189127, 19.550115], [-99.185245, 19.549543], [-99.17706, 19.550875], [-99.171349, 19.545926], [-99.169255, 19.537741], [-99.1664, 19.531269], [-99.160118, 19.531078], [-99.15555, 19.534695], [-99.148697, 19.543071], [-99.147532, 19.542877], [-99.145366, 19.538822], [-99.142665, 19.537227], [-99.140892, 19.534314], [-99.139369, 19.520989], [-99.140131, 19.517182], [-99.12357, 19.51585], [-99.123311, 19.509038], [-99.121831, 19.507832], [-99.120844, 19.504981], [-99.121721, 19.501801], [-99.119528, 19.501089], [-99.114923, 19.500924], [-99.111908, 19.499992], [-99.110921, 19.498128], [-99.11125, 19.495606], [-99.112894, 19.493413], [-99.114649, 19.489357], [-99.114649, 19.485738], [-99.113004, 19.485738], [-99.109386, 19.489192], [-99.104068, 19.490837], [-99.099408, 19.490069], [-99.097983, 19.490782], [-99.097379, 19.494071], [-99.096009, 19.49769], [-99.093816, 19.499554], [-99.094145, 19.501527], [-99.096612, 19.502459], [-99.098421, 19.504817], [-99.100998, 19.506352], [-99.102094, 19.508106], [-99.101601, 19.510409], [-99.101546, 19.511944], [-99.103575, 19.513917], [-99.103794, 19.517042], [-99.103575, 19.520935], [-99.098476, 19.521483], [-99.096941, 19.519674], [-99.094309, 19.517919], [-99.090362, 19.516494], [-99.088169, 19.514904], [-99.087621, 19.515178], [-99.088498, 19.518577], [-99.089572, 19.52259], [-99.088071, 19.524425], [-99.08557, 19.525258], [-99.084902, 19.527093], [-99.081234, 19.534764], [-99.076231, 19.53393], [-99.072896, 19.535764], [-99.065725, 19.5406], [-99.057887, 19.542268], [-99.052551, 19.545103], [-99.052718, 19.548605], [-99.054218, 19.552274], [-99.051383, 19.554442], [-99.047548, 19.556109], [-99.045046, 19.559611], [-99.046551, 19.560974], [-99.047094, 19.563146], [-99.046278, 19.564359], [-99.043402, 19.565318], [-99.04123, 19.568358], [-99.041447, 19.574222], [-99.044342, 19.578958], [-99.043199, 19.5801], [-99.03971, 19.580086], [-99.037646, 19.583561], [-99.039885, 19.590277], [-99.038417, 19.599962], [-99.022675, 19.599897], [-99.022789, 19.598831], [-99.022961, 19.596737], [-99.023475, 19.594358], [-99.024008, 19.592074], [-99.024483, 19.588876], [-99.024769, 19.58722], [-99.024806, 19.584464], [-99.024854, 19.582275], [-99.025032, 19.580229]], [[-99.105708, 19.333898], [-99.10652, 19.333608], [-99.106578, 19.333028], [-99.10623, 19.332332], [-99.105592, 19.331695], [-99.105302, 19.331231], [-99.105012, 19.330477], [-99.105244, 19.329549], [-99.10478, 19.328505], [-99.104201, 19.329027], [-99.102867, 19.329027], [-99.102635, 19.3281], [-99.101707, 19.328505], [-99.100084, 19.328042], [-99.09904, 19.327636], [-99.097822, 19.32694], [-99.096373, 19.32665], [-99.096199, 19.325896], [-99.095039, 19.325838], [-99.093299, 19.325896], [-99.091676, 19.326012], [-99.0904, 19.325258], [-99.088777, 19.323693], [-99.087733, 19.323577], [-99.086341, 19.324678], [-99.085471, 19.32549], [-99.084428, 19.32549], [-99.084254, 19.32462], [-99.083326, 19.324562], [-99.083268, 19.32549], [-99.082108, 19.326244], [-99.080775, 19.326244], [-99.080543, 19.324968], [-99.079325, 19.324331], [-99.077875, 19.324562], [-99.077121, 19.325896], [-99.076542, 19.327056], [-99.075092, 19.326882], [-99.074918, 19.325896], [-99.074048, 19.326012], [-99.073468, 19.327636], [-99.073468, 19.329433], [-99.074222, 19.331231], [-99.074106, 19.332506], [-99.07312, 19.33239], [-99.072773, 19.330941], [-99.071207, 19.330883], [-99.070105, 19.331811], [-99.070511, 19.334014], [-99.070801, 19.336681], [-99.070743, 19.338885], [-99.072541, 19.340682], [-99.074222, 19.341436], [-99.074686, 19.34277], [-99.074686, 19.34364], [-99.075092, 19.344277], [-99.075266, 19.345669], [-99.075324, 19.348684], [-99.07544, 19.351236], [-99.0766, 19.352105], [-99.078339, 19.352569], [-99.079499, 19.352627], [-99.080601, 19.353207], [-99.08205, 19.354657], [-99.083094, 19.355585], [-99.083848, 19.356686], [-99.084891, 19.356976], [-99.086167, 19.358194], [-99.086805, 19.359006], [-99.087791, 19.359296], [-99.088313, 19.360049], [-99.089936, 19.360107], [-99.089752, 19.360742], [-99.090922, 19.360803], [-99.090922, 19.359238], [-99.090284, 19.357962], [-99.090574, 19.357498], [-99.092256, 19.358658], [-99.093705, 19.358484], [-99.094459, 19.357672], [-99.094633, 19.356744], [-99.095155, 19.355759], [-99.095619, 19.355411], [-99.097242, 19.355237], [-99.09904, 19.355005], [-99.100721, 19.353439], [-99.102055, 19.352743], [-99.102635, 19.3517], [-99.102055, 19.350714], [-99.101881, 19.349554], [-99.102055, 19.34851], [-99.103679, 19.34851], [-99.104896, 19.348626], [-99.105302, 19.347699], [-99.106172, 19.347583], [-99.106056, 19.346133], [-99.105998, 19.345553], [-99.105592, 19.345031], [-99.105476, 19.34393], [-99.105534, 19.342132], [-99.10652, 19.342248], [-99.107274, 19.342132], [-99.108202, 19.341784], [-99.108376, 19.340392], [-99.107216, 19.339871], [-99.106172, 19.338479], [-99.106346, 19.337667], [-99.105592, 19.336797], [-99.105128, 19.33616], [-99.105012, 19.335522], [-99.105012, 19.334536], [-99.105708, 19.333898]]]]}}]}